FIXME,Type,addr:city,addr:country,addr:housename,addr:housenumber,addr:postcode,addr:state,addr:street,addr:unit,aeroway,alt_name,amenity,capacity,contact:phone,cuisine,cuisine_1,delivery,description,diet:gluten_free,diet:vegetarian,disused,disused:amenity,drive_in,drive_thru,ele,email,emergency,gay,gnis:county_id,gnis:county_name,gnis:created,gnis:feature_id,gnis:feature_type,gnis:state_id,grades,internet_access,isced:level,lat,leisure,lon,microbrewery,name,name:en,note,old_name,opening_hours,operator,organic,outdoor_seating,payment:bitcoin,payment:cash,payment:litecoin,phone,religion,school,shop,smoking,sport,takeaway,type,website,wheelchair,wikipedia
,,,,,3908,78751,,Avenue B,,,,school,,,,,,,,,,,,,186,,,,453,,11/30/1979,1329956,,48,,,,30.3040961,,-97.7355612,,Baker School,,,,,,,,,,,,,,,,,,,,,
,,,,,,,,,,,,hospital,,,,,,,,,,,,,158,,,,453,,11/30/1979,1331174,,48,,,,30.2743149,,-97.7324471,,Brackenridge Hospital,,,,,,,,,,,,,,,,,,,,yes,
,,,,,,,,,,,,school,,,,,,,,,,,,,167,,,,453,,11/30/1979,1332902,,48,,,,30.2818744,,-97.7641726,,Clarksville School,,,,,,,,,,,,,,,,,,,,,
,,,,,,,,,,,,school,,,,,,,,,,,,,140,,,,453,,11/30/1979,1334063,,48,,,,30.2629869,,-97.7050041,,Daughters of Saint Joseph School,,,,,,,,,,,,,,,,,,,,,
,,,,,,,,,,,,school,,,,,,,,,,,,,175,,,,453,,11/30/1979,1334356,,48,,,,30.2927073,,-97.7636172,,Dill School,,,,,,,,,,,,,,,,,,,,,
,,,,,,,,,,,,school,,,,,,,,,,,,,236,,,,453,,11/30/1979,1334860,,48,,,,30.2829848,,-97.811118,,Eanes School,,,,,,,,,,,,,,,,,,,,,
,,,,,,,,,,,,school,,,,,,,,,,,,,162,,,,453,,11/30/1979,1338330,,48,,,,30.2632645,,-97.7222268,,Huston Tillotson College,,,,,,,,,,,,,,,,,,,,,
,,,,,,,,,,,,school,,,,,,,,,,,,,163,,,,453,,11/30/1979,1340896,,48,,,,30.3440959,,-97.5727794,,Manor High School,,,,,,,,,,,,,,,,,,,,,
,,,,,,,,,,,,school,,,,,,,,,,,,,147,,,,453,,11/30/1979,1343644,,48,,,,30.266042,,-97.738894,,Pasteur Institute,,,,,,,,,,,,,,,,,,,,,
,,Austin,,,1500,78757,,West Anderson Lane,,,,school,,,,,,,,,,,,,234,,,,453,,11/30/1979,1344974,,48,,,,30.3526801,,-97.7209525,,Redeemer Lutheran School,,,,,Redeemer Lutheran Church,,,,,,,,,,,,,,,,
,,,,,,,,,,,,school,,,,,,,,,,,,,183,,,,453,,11/30/1979,1345825,,48,,,,30.3043744,,-97.6747261,,Sacred Heart School,,,,,,,,,,,,,,,,,,,,,
,,,,,,,,,,,,school,,,,,,,,,,,,,214,,,,453,,11/30/1979,1345841,,48,,,,30.3318731,,-97.7005607,,Sain Johns School,,,,,,,,,,,,,,,,,,,,,
,,,,,,,,,,,,hospital,,,,,,,,,,,,,183,,,,453,,11/30/1979,1345886,,48,,,,30.2896522,,-97.7261162,,Saint Davids Hospital,,,,,,,,,,,,,,,,,,,,,
,,,,,,,,,,,,school,,,,,,,,,,,,,187,,,,453,,11/30/1979,1346092,,48,,,,30.2938188,,-97.7236162,,Saint Pauls School,,,,,,,,,,,,,,,,,,,,,
,,,,,,,,,,,,school,,,,,,,,,,,,,234,,,,453,,11/30/1979,1346119,,48,,,,30.3301109,,-97.8185931,,St. Stephen's Episcopal School,,,,,,,,,,,,,,,,,,,,,"en:St. Stephen's Episcopal School (Austin, Texas)"
,,,,,,,,,,,,school,,,,,,,,,,,,,140,,,,453,,11/30/1979,1346405,,48,,,,30.254376,,-97.712782,,San Juan School,,,,,,,,,,,,,,,,,,,,,
,,,,,,,,,,,,school,,,,,,,,,,,,,138,,,,453,,11/30/1979,1348401,,48,,,,30.2515985,,-97.6897257,,Texas Blind- Deaf and Orphan School,,,,,,,,,,,,,,,,,,,,,
,,,,,,,,,,,,school,,,,,,,,,,,,,202,,,,453,,11/30/1979,1348436,,48,,,,30.3268729,,-97.7416728,,The Brown School,,,,,,,,,,,,,,,,,,,,,
,,,,,,,,,,,,school,,,,,,,,,,,,,163,,,,453,,11/30/1979,1348735,,48,,,,30.2715982,,-97.6369469,,Travis State School,,,,,,,,,,,,,,,,,,,,,
,,,,,,,,,,,,school,,,,,,,,,,,,,202,,,,453,,11/30/1979,1348791,,48,,,,30.3143734,,-97.7402837,,Trinity School,,,,,,,,,,,,,,,,,,,,limited,
,,,,,,,,,,,,school,,,,,,,,,,,,,216,,,,453,,11/30/1979,1359537,,48,,,,30.4060357,,-97.7888974,,Hope House School,,,,,,,,,,,,,,,,,,,,,
,,,,,,,,,,,,school,,,,,,,,,,,,,237,,,,491,,11/30/1979,1367333,,48,,,,30.4954777,,-97.6919518,,Saint Williams School,,,,,,,,,,,,,,,,,,,,,
,,,,,,,,,,,,school,,,,,,,,,,,,,148,,,,453,,11/30/1979,1373423,,48,,,,30.2318769,,-97.6975035,,Dolores School,,,,,,,,,,,,,,,,,,,,,
,,,,,,,,,,,,school,,,,,,,,,,,,,138,,,,453,,11/30/1979,1374419,,48,,,,30.2016006,,-97.6377794,,La Mar School,,,,,,,,,,,,,,,,,,,,,
,,,,,,,,,,,,school,,,,,,,,,,,,,173,,,,453,,11/30/1979,1375969,,48,,,,30.2407968,,-97.7630928,,San Jose School,,,,,,,,,,,,,,,,,,,,,
,,,,,,,,,,,,school,,,,,,,,,,,,,221,,,,453,,11/30/1979,1376432,,48,,,,30.1382671,,-97.8538947,,The Marbridge School,,,,,,,,,,,,,,,,,,,,,
,,,,,,,,,,,,school,,,,,,,,,,,,,146,,,,453,,10/08/2003,2008257,,48,,,,30.2659899,,-97.745891,,American Institute for Learning High School,,,,,,,,,,,,,,,,,,,,,
,,,,,,,,,,,,school,,,,,,,,,,,,,212,,,,453,,10/09/2003,2009072,,48,,,,30.4083489,,-97.6871674,,River Oaks Elementary School,,,,,,,,,,,,,,,,,,,,,
,,,,,,,,,,,,school,,,,,,,,,,,,,186,,,,453,,10/09/2003,2009073,,48,,,,30.3035405,,-97.735839,,Robbins Academy,,,,,,,,,,,,,,,,,,,,,
,,,,,,,,,,,,school,,,,,,,,,,,,,236,,,,453,,10/09/2003,2009080,,48,,,,30.4327942,,-97.6709349,,Star Charter School,,,,,,,,,,,,,,,,,,,,,
,,,,,,,,,,,,school,,,,,,,,,,,,,181,,,,453,,10/09/2003,2009083,,48,,,,30.2849303,,-97.7175048,,Texas Academy of Excellence,,,,,,,,,,,,,,,,,,,,,
,,,,,,,,,,,,school,,,,,,,,,,,,,164,,,,453,,10/09/2003,2009084,,48,,,,30.2689915,,-97.7273264,,Texas Empowerment Academy,,,,,,,,,,,,,,,,,,,,,
,,,,,,,,,,,,school,,,,,,,,,,,,,227,,,,453,,10/09/2003,2009085,,48,,,,30.4432582,,-97.6288935,,Timmerman Elementary School,,,,,,,,,,,,,,,,,,,,,
,,,,,,,,,,,,school,,,,,,,,,,,,,271,,,,453,,10/09/2003,2009090,,48,,,,30.3038161,,-97.8913978,,West Ridge Middle School,,,,,,,,,,,,,,,,,,,,,
,,,,,,,,,,,,school,,,,,,,,,,,,,230,,,,453,,10/09/2003,2009092,,48,,,,30.4166565,,-97.6894928,,Westview Middle School,,,,,,,,,,,,,,,,,,,,,
,,,,,1101,78660,,Picadilly,,,,school,,,,,,,,,,,,,236,,,,453,,10/09/2003,2009095,,48,,,,30.4643851,,-97.642333,,Windermere Elementary School,,,,,,,,,,,,,,,,,,,,,
,,,,,,,,,,,,school,,,,,,,,,,,,,245,,,,453,,10/09/2003,2009114,,48,,,,30.4425947,,-97.6409398,,Pflugerville Middle School,,,,,,,,,,,,,,,,,,,,,
,,,,,,,,,,,,school,,,,,,,,,,,,,140,,,,453,,10/09/2003,2009148,,48,,,,30.252726,,-97.7299327,,Martin Junior High School,,,,,,,,,,,,,,,,,,,,,
,,,,,,,,,,,,school,,,,,,,,,,,,,239,,,,453,,10/09/2003,2009155,,48,,,,30.4327026,,-97.6766726,,Northwest Elementary School,,,,,,,,,,,,,,,,,,,,,
,,,,,,,,,,,,school,,,,,,,,,,,,,221,,,,453,,10/09/2003,2009156,,48,,,,30.3440948,,-97.7027831,,Nyos Charter School,,,,,,,,,,,,,,,,,,,,,
,,,,,,,,,,,,school,,,,,,,,,,,,,223,,,,453,,10/09/2003,2009164,,48,,,,30.4148338,,-97.6915635,,Parmer Lane Elementary School,,,,,,,,,,,,,,,,,,,,,
,,,,,,,,,,,,school,,,,,,,,,,,,,155,,,,453,,10/09/2003,2009167,,48,,,,30.1655781,,-97.7290534,,Hillcrest Elementary School,,,,,,,,,,,,,,,,,,,,,
,,,,,,,,,,,,school,,,,,,,,,,,,,239,,,,453,,10/09/2003,2009173,,48,,,,30.4465913,,-97.6369494,,Pflugerville Alternative Learning Center,,,,,,,,,,,,,,,,,,,,,
,,,,,,,,,,,,school,,,,,,,,,,,,,236,,,,453,,10/09/2003,2009175,,48,,,,30.4463135,,-97.6358383,,Pflugerville High School,,,,,,,,,,,,,,,,,,,,,
,,,,,,,,,,,,school,,,,,,,,,,,,,200,,,,453,,10/09/2003,2009176,,48,,,,30.2721519,,-97.8030621,,Hill Country Middle School,,,,,,,,,,,,,,,,,,,,,
,,,,,,,,,,,,school,,,,,,,,,,,,,162,,,,453,,10/09/2003,2009177,,48,,,,30.3090964,,-97.6713928,,Andrews Elementary School,,,,,,,,,,,,,,,,,,,,,
,,,,,,,,,,,,school,,,,,,,,,,,,,262,,,,453,,10/09/2003,2009181,,48,,,,30.3040941,,-97.8747307,,Barton Creek Elementary School,,,,,,,,,,,,,,,,,,,,,
,,,,,,,,,,,,school,,,,,,,,,,,,,200,,,,453,,10/09/2003,2009193,,48,,,,30.339927,,-97.8038966,,Bridge Point Elementary School,,,,,,,,,,,,,,,,,,,,,
,,,,,,,,,,,,school,,,,,,,,,,,,,229,,,,453,,10/09/2003,2009195,,48,,,,30.4607574,,-97.6486166,,Brookhollow Elementary School,,,,,,,,,,,,,,,,,,,,,
,,,,,,,,,,,,school,,,,,,,,,,,,,196,,,,453,,10/09/2003,2009201,,48,,,,30.2690965,,-97.8050065,,Cedar Creek Elementary School,,,,,,,,,,,,,,,,,,,,,
,,,,,,,,,,,,school,,,,,,,,,,,,,207,,,,453,,10/09/2003,2009203,,48,,,,30.3882506,,-97.6601419,,Copperfield Elementary School,,,,,,,,,,,,,,,,,,,,,
,,,,,,,,,,,,school,,,,,,,,,,,,,145,,,,453,,10/09/2003,2009209,,48,,,,30.1707685,,-97.6244454,,Del Valle Junior High School,,,,,,,,,,,,,,,,,,,,,
,,Del Valle,,,5301 B,78617,,Ross Road,,,,school,,,,,,,,,,,,,,,,,,,,2009210,,,,,,30.1764112,,-97.6124634,,Del Valle Opportunity Center,,,,,,,,,,,512-386-3300,,,,,,,,http://delvalle.tx.schoolwebpages.com/education/school/school.php?sectiondetailid=75,,
,,,,,,,,,,,,school,,,,,,,,,,,,,210,,,,453,,10/09/2003,2009211,,48,,,,30.3998598,,-97.6451015,,Dessau Elementary School,,,,,,,,,,,,,,,,,,,,,
,,,,,,,,,,,,school,,,,,,,,,,,,,180,,,,453,,10/09/2003,2009212,,48,,,,30.2927073,,-97.7644506,,Dill Special Programs School,,,,,,,,,,,,,,,,,,,,,
,,,,,,,,,,,,school,,,,,,,,,,,,,225,,,,453,,10/09/2003,2009215,,48,,,,30.2771517,,-97.8041733,,Eanes Elementary School,,,,,,,,,,,,,,,,,,,,,
,,,,,,,,,,,,school,,,,,,,,,,,,,192,,,,453,,10/09/2003,2009216,,48,,,,30.1529893,,-97.8161163,,Eden Park Academy,,,,,,,,,,,,,,,,,,,,,
,,,,,,,,,,,,school,,,,,,,,,,,,,229,,,,491,,10/09/2003,2009312,,48,,,,30.498962,,-97.6739555,,Xenia Voigt Elementary School,,,,,,,,,,,,,,,,,,,,,
,,,,,,,,,,,,school,,,,,,,,,,,,,268,,,,491,,10/09/2003,2009330,,48,,,,30.4536152,,-97.7707232,,,,,,,,,,,,,,,,,,,,,,,
,,,,,,,,,,,,school,,,,,,,,,,,,,309,,,,491,,10/09/2003,2009341,,48,,,,30.4572025,,-97.8203941,,,,,,,,,,,,,,,,,,,,,,,
,,,,,,,,,,,,school,,,,,,,,,,,,,302,,,,491,,10/09/2003,2009345,,48,,,,30.4450896,,-97.8041419,,,,,,,,,,,,,,,,,,,,,,,
,,,,,,,,,,,,school,,,,,,,,,,,,,288,,,,491,,10/09/2003,2009355,,48,,,,30.4557759,,-97.7978233,,,,,,,,,,,,,,,,,,,,,,,
,,,,,,,,,,,,school,,,,,,,,,,,,,270,,,,491,,10/09/2003,2009365,,48,,,,30.4707088,,-97.7818289,,Forest North Elementary School,,,,,,,,,,,,,,,,,,,,,
,,,,,,,,,,,,school,,,,,,,,,,,,,230,,,,491,,10/09/2003,2009367,,48,,,,30.4979781,,-97.643617,,Gattis Elementary School,,,,,,,,,,,,,,,,,,,,,
,,,,,,,,,,,,school,,,,,,,,,,,,,285,,,,491,,10/09/2003,2009386,,48,,,,30.4884453,,-97.8310559,,Ada Mae Faubion Elementary School,,,,,,,,,,,,,,,,,,,,,
,,,,,,,,,,,,school,,,,,,,,,,,,,238,,,,491,,10/09/2003,2009390,,48,,,,30.4896446,,-97.6911183,,Bluebonnet Elementary School,,,,,,,,,,,,,,,,,,,,,
,,,,,,,,,,,,school,,,,,,,,,,,,,295,,,,491,,10/09/2003,2009394,,48,,,,30.4352007,,-97.8244544,,Canyon Creek Elementary School,,,,,,,,,,,,,,,,,,,,,
,,,,,,,,,,,,school,,,,,,,,,,,,,266,,,,491,,10/09/2003,2009395,,48,,,,30.4283276,,-97.7843694,,Canyon Vista Middle School,,,,,,,,,,,,,,,,,,,,,
,,,,,,,,,,,,school,,,,,,,,,,,,,268,,,,491,,10/09/2003,2009399,,48,,,,30.4924269,,-97.7339814,,Cedar Valley Middle School,,,,,,,,,,,,,,,,,,,,,
,,,,,,,,,,,,school,,,,,,,,,,,,,306,,,,491,,10/09/2003,2009404,,48,,,,30.4653081,,-97.8359858,,Cypress Elementary School,,,,,,,,,,,,,,,,,,,,,
,,,,,,,,,,,,school,,,,,,,,,,,,,276,,,,491,,10/09/2003,2009406,,48,,,,30.4527921,,-97.77259,,,,,,,,,,,,,,,,,,,,,,,
,,,,,,,,,,,,hospital,,,,,,,,,,,,,202,,,,453,,11/25/2003,2015683,,48,,,,30.2115988,,-97.7916722,,The Oaks Treatment Center,,,,,,,,,,,,,,,,,,,,,
,,,,,,,,,,,,hospital,,,,,,,,,,,,,171,,,,453,,11/25/2003,2015684,,48,,,,30.2709189,,-97.7958328,,Renaissance Womens Center of Austin,,,,,,,,,,,,,,,,,,,,,
,,,,,,,,,,,,hospital,,,,,,,,,,,,,195,,,,453,,11/25/2003,2015687,,48,,,,30.3121512,,-97.7430616,,The Specialty Hospital of Austin,,,,,,,,,,,,,,,,,,,,,
,,,,,,,,,,,,hospital,,,,,,,,,,,,,183,,,,453,,11/25/2003,2015688,,48,,,,30.3382619,,-97.6772267,,Summit Hospital of Central Texas,,,,,,,,,,,,,,,,,,,,,
,,Austin,,,7415,78745,,Manchaca Road,,,,school,,,,,,,,,,,,,,,,,,,,2024541,,,,,,30.1964213,,-97.8087584,,Strickland Christian School,,,,,,,,,,,512-447-1447,christian,,,,,,,http://www.stricklandschool.com/,,
,,,,,,,,,,,,school,,,,,,,,,,,,,202,,,,453,,02/18/2004,2031654,,48,,,,30.2297496,,-97.7559857,,Saint Edwards University,,,,,,,,,,,,,,,,,,,,,
,,,,,,,,,,,,hospital,,,,,,,,,,,,,194,,,,453,,11/13/2007,2360980,,48,,,,30.3115221,,-97.7427275,,Austin American Sleep Diagnostic Center,,,,,,,,,,,,,,,,,,,,,
,,,,,,,,,,,,hospital,,,,,,,,,,,,,182,,,,453,,11/13/2007,2360981,,48,,,,30.3064088,,-97.7462348,,Austin Heart Center,,,,,,,,,,,,,,,,,,,,yes,
,,,,,,,,,,,,hospital,,,,,,,,,,,,,158,,,,453,,11/13/2007,2360983,,48,,,,30.2743706,,-97.733919,,Austin Women's Hospital,,,,,,,,,,,,,,,,,,,,,
,,,,,,,,,,,,hospital,,,,,,,,,,,,,284,,,,453,,11/13/2007,2360990,,48,,,,30.2873225,,-97.8269516,,Saint Jude Medical Center,,,,,,,,,,,,,,,,,,,,,
,,,,,,,,,,,,hospital,,,,,,,,,,,,,152,,,,453,,11/13/2007,2360992,,48,,,,30.2742901,,-97.7346834,,Seton Southwest-Shivers Center,,,,,,,,,,,,,,,,,,,,,
,,,,,,,,,,,,hospital,,,,,,,,,,,,,208,,,,453,,11/13/2007,2360993,,48,,,,30.2259375,,-97.7745796,,St . David's South Austin Medical Center,,,,,,,,,,,,,,,,,,,,,
,,,,,,,,,,,,hospital,,,,,,,,,,,,,226,,,,453,,11/13/2007,2360994,,48,,,,30.3536628,,-97.7494158,,Texan Surgery Center,,,,,,,,,,,,,,,,,,,,,
,,,,,,,,,,,,school,,,,,,,,,,,,,183,,,,453,,11/13/2007,2361086,,48,,,,30.2918407,,-97.7391202,,All Saints Episcopal Day School,,,,,,,,,,,,,,,,,,,,,
,,,,,,,,,,,,school,,,,,,,,,,,,,147,,,,453,,11/13/2007,2361088,,48,,,,30.26603,,-97.7418557,,American Youthworks Charter School,,,,,,,,,,,,,,,,,,,,,
,,,,,,,,,,,,school,,,,,,,,,,,,,295,,,,491,,11/13/2007,2361089,,48,,,,30.4526708,,-97.8065109,,,,,,,,,,,,,,,,,,,,,,,
,,,,,,,,,,,,school,,,,,,,,,,,,,292,,,,491,,11/13/2007,2361093,,48,,,,30.4753323,,-97.8359454,,Cedar Park Middle School,,,,,,,,,,,,,,,,,,,,,
,,,,,,,,,,,,school,,,,,,,,,,,,,191,,,,453,,11/13/2007,2361094,,48,,,,30.3075441,,-97.7059238,,Cedars International Academy,,,,,,,,,,,,,,,,,,,,,
,,,,,,,,,,,,school,,,,,,,,,,,,,202,,,,453,,11/13/2007,2361095,,48,,,,30.1818075,,-97.7946496,,Christ Community Christian School,,,,,,,,,,,,,,,,,,,,,
,,,,,,,,,,,,school,,,,,,,,,,,,,154,,,,453,,11/13/2007,2361098,,48,,,,30.1728612,,-97.6293031,,Del Valle Junior High School,,,,,,,,,,,,,,,,,,,,,
,,,,,,,,,,,,school,,,,,,,,,,,,,201,,,,453,,11/13/2007,2361099,,48,,,,30.2446621,,-97.7808296,,Faith United Methodist Preschool,,,,,,,,,,,,,,,,,,,,,
,,,,,,,,,,,,school,,,,,,,,,,,,,262,,,,453,,11/13/2007,2361100,,48,,,,30.3695937,,-97.7583039,,First Presbyterian Church Day School,,,,,,,,,,,,,,,,,,,,,
,,,,,,,,,,,,school,,,,,,,,,,,,,166,,,,453,,11/13/2007,2361101,,48,,,,30.2748668,,-97.7426086,,First United Methodist Church of Austin Preschool,,,,,,,,,,,,,,,,,,,,,
,,,,,,,,,,,,school,,,,,,,,,,,,,184,,,,453,,11/13/2007,2361103,,48,,,,30.2959346,,-97.7689936,,Good Shepherd Episcopal School,,,,,,,,,,,,,,,,,,,,,
doesn't exist at this location in real life,,,,,,,,,,,,school,,,,,,,,,,,,,273,,,,453,,11/13/2007,2361104,,48,,,,30.3980542,,-97.749644,,Great Hills Baptist Church Preschool,,,,,,,,,,,,,,,,,,,,,
,,,,,,,,,,,,school,,,,,,,,,,,,,293,,,,453,,11/13/2007,2361108,,48,,,,30.3907452,,-97.9344255,,Hudson Bend Middle School,,,,,,,,,,,,,,,,,,,,,
,,,,,,,,,,,,school,,,,,,,,,,,,,287,,,,453,,11/13/2007,2361110,,48,,,,30.419737,,-97.7694446,,Kathy Caraway Elementary School,,,,,,,,,,,,,,,,,,,,,
,,,,,,,,,,,,school,,,,,,,,,,,,,229,,,,453,,11/13/2007,2361113,,48,,,,30.3851157,,-97.7032159,,McCullough Academy of Excellence,,,,,,,,,,,,,,,,,,,,,
,,,,,,,,,,,,school,,,,,,,,,,,,,259,,,,453,,11/13/2007,2361115,,48,,,,30.23872,,-97.8792398,,Mount Olive Lutheran Church Preschool,,,,,,,,,,,,,,,,,,,,,
,,,,,,,,,,,,school,,,,,,,,,,,,,219,,,,453,,11/13/2007,2361116,,48,,,,30.4675249,,-97.586526,,Murchison Elementary School,,,,,,,,,,,,,,,,,,,,,
,,,,,,,,,,,,school,,,,,,,,,,,,,263,,,,453,,11/13/2007,2361123,,48,,,,30.3741524,,-97.7561443,,Saint Matthews Episcopal Day School,,,,,,,,,,,,,,,,,,,,,
,,,,,,,,,,,,school,,,,,,,,,,,,,145,,,,453,,11/13/2007,2361129,,48,,,,30.2605728,,-97.7186294,,University Of Texas Elementary Charter School,,,,,,,,,,,,,,,,,,,,,
,,,,,,,,,,,,school,,,,,,,,,,,,,193,,,,453,,11/13/2007,2361130,,48,,,,30.315108,,-97.6923256,,Wesley School,,,,,,,,,,,,,,,,,,,,,
,,,,,,,,,,,,restaurant,,,,,,,,,,,,,,,,,,,,,,,,,,30.3221769,,-97.6932173,,La Palapa,,,,,,,,,,,,,,,,,,,,,
,,,,,,,,,,,,restaurant,,,,,,,,,,,,,,,,,,,,,,,,,,30.3231224,,-97.7037688,,China Star Buffet,,,,,,,,,,,,,,,,,,,,,
,,,,,,,,,,,,restaurant,,,,,,,,,,,,,,,,,,,,,,,,,,30.3253747,,-97.7048159,,Pappadeaux,,,,,,,,,,,,,,,,,,,,,
,,,,,,,,,,,,restaurant,,,,,,,,,,,,,,,,,,,,,,,,,,30.3269188,,-97.704881,,Pappasitos,,,,,,,,,,,,,,,,,,,,,
,,,,,,,,,,,,restaurant,,,,,,,,,,,,,,,,,,,,,,,,,,30.3278596,,-97.7048896,,Chili's,,,,,,,,,,,,,,,,,,,,,
,,,,,,,,,,,,restaurant,,,,,,,,,,,,,,,,,,,,,,,,,,30.3288301,,-97.7049325,,Japon Sushi,,,,,,,,,,,,,,,,,,,,,
,,,,,,,TX,,,helipad,,hospital,,,,,,,,,,,,,176,,,,453,Travis,08/01/1994;11/25/2003,1386185;2015685,Airport,48,,,,30.3060828,,-97.7483634,,Seton Medical Center H-4 Heliport;Seton Shoal Creek - Daughters of Charity,,,,,,,,,,,,,,,,,,,,yes,
,,,,,,,,,,,,school,,,,,,,,,,,,,,,,,,,,,,,,,,30.2594637,,-97.753871,,Armstrong Community Music School,,,,,,,,,,,,,,,,,,,,,
,,,,,,,,,,,,restaurant,,,,,,,,,,,,,,,,,,,,,,,,,,30.2360262,,-97.7953413,,Pei Wei,,,,,,,,,,,,,,,,,,,,,
,,,,"""basement"" of building where Chinatown is",3407,78731,,Greystone Drive,,,,restaurant,,,japanese,,,"enter through side facing Mopac, East",,,,,,,,,,,,,,,,,,,,30.3565169,,-97.7473856,,Musashino Sushi Dokoro,,,,,,,,,,,(512) 795-8593,,,,,,,,http://www.musashinosushi.com/,,
,,,,,,,,,,,,restaurant,,,chinese,,,,,,,,,,,,,,,,,,,,,,,30.3565687,,-97.7473599,,Chinatown,,,,,,,,,,,,,,,,,,,,,
,,,,,,,,,,,,restaurant,,,,,,,,,,,,,,,,,,,,,,,,,,30.2780903,,-97.7716979,,Magnolia Cafe,,,,,,,,,,,,,,,,,,,,,
,,,,,,,,,,,,restaurant,,,,,,,,,,,,,,,,,,,,,,,,,,30.2946775,,-97.7844094,,Hula Hut,,,,,,,,,,,,,,,,,,,,,
,,,,,,,,,,,,restaurant,,,mexican,,,,,,,,,,,,,,,,,,,,,,,30.2800588,,-97.7594781,,Zocalo,,,,,,,,,,,,,,,,,,,,,
,,,,,,,,,,,,hospital,,,,,,,,,,,,,,,,,,,,,,,,,,30.4116126,,-97.7061732,,St. David's Hospital,,,,,,,,,,,,,,,,,,,,,
,,,,,,,,,,,,restaurant,,,,,,,,,,,,,,,,,,,,,,,,,,30.2778528,,-97.7729085,,Mangia Pizza,,,,,,,,,,,,,,,,,,,,,
,,,,,,,,,,,,restaurant,,,tex-mex,,,,,,,,,,,,,,,,,,,,,,,30.2828378,,-97.7755976,,Maudie's Tex Mex,,,,,,,,,,,,,,,,,,,,,
,,,,,,,,,,,,school,,,,,,,,,,,,,,,,,,,,,,,,,,30.3982312,,-97.6432561,,Dessau Middle School,,,,,,,,,,,,,,,,,,,,,
,,,,,,,,,,,,restaurant,,,,,,,,,,,,,,,,,,,,,,,,,,30.2638237,,-97.7632926,,Chuy's Barton Springs,,,,,,,,,,,,,,,,,,,,,
,,,,,,,,,,,,restaurant,,,,,,,,,,,no,,,,,,,,,,,,,,,30.262808,,-97.762057,yes,Shady Grove,,,,,,,yes,,,,,,,,,,yes,,,limited,
,,,,,1000,78703,,West Lynn St,,,,restaurant,,,american,,,,,,,,,,,,,,,,,,,,,,,30.2794133,,-97.7600581,,Galaxy Cafe,,,,,,,,,,,,,,,,,,,,,
,,,,,,,,,,,,restaurant,,,,,,,,,,,,,,,,,,,,,,,,,,30.2307132,,-97.7881368,,Dan's Hamburgers,,,,,,,,,,,,,,,,,,,,,
,,,,,,,,,,,,restaurant,,,,,,,,,,,,,,,,,,,,,,,,,,30.2459535,,-97.7782697,,Taco Xpress,,,,,,,,,,,,,,,,,,,,,
,,,,,,,,,,,,restaurant,,,,,,,,,,,,,,,,,,,,,,,,,,30.2316672,,-97.8001648,,Hyde Park Bar & Grill,,,,,,,,,,,,,,,,,,,,,
,,,,,,,,,,,,restaurant,,,,,,,,,,,,,,,,,,,,,,,,,,30.2314518,,-97.8008555,,Madam Mam's,,,,,,,,,,,,,,,,,,,,,
,,,,,,,,,,,,restaurant,,,,,,,,,,,,,,,,,,,,,,,,,,30.2360627,,-97.7954282,,Fish City Grill,,,,,,,,,,,,,,,,,,,,,
,,,,,,,,,,,,restaurant,,,,,,,,,,,,,,,,,,,,,,,,,,30.4372791,,-97.6106326,,Hakata Sushi & Asian Grill,,,,,,,,,,,,,,,,,,,,,
,,,,,,,,,,,,restaurant,,,,,,,,,,,,,,,,,,,,,,,,,,30.4433175,,-97.6089675,,Mexican grille,,,,,,,,,,,,,,,,,,,,,
,,,,,,,,,,,,restaurant,,,,,,,,,,,,,,,,,,,,,,,,,,30.3185788,,-97.7397518,,Blue Star Cafeteria,,,,,,,,,,,,,,,,,,,,,
,,,,,,,,,,,,restaurant,,,,,,,,,,,,,,,,,,,,,,,,,,30.3183417,,-97.7399664,,Gusto Italian Kitchen,,,,,,,,,,,,,,,,,,,,,
,,,,,,,,,,,,restaurant,,,,,,,,,,,,,,,,,,,,,,,,,,30.3194531,,-97.7387991,,The Omelettry,,,,,,,,,,,,,,,,,,,,limited,
,,,,,,,,,,,,restaurant,,,,,,,,,,,,,,,,,,,,,,,,,,30.3179119,,-97.7402411,,Maru Japanese,,,,,,,,,,,,,,,,,,,,,
,,,,,,,,,,,,restaurant,,,,,,,,,,,,,,,,,,,,,,,,,,30.3255061,,-97.7433739,,Fonda San Miguel,,,,,,,,,,,,,,,,,,,,,
,,,,,,,,,,,,restaurant,,,,,,,,,,,,,,,,,,,,,,,,,,30.3334941,,-97.7409813,,Hangtown Grill,,,,,,,,,,,,,,,,,,,,,
,,,,,,,,,,,,restaurant,,,,,,,,,,,,,,,,,,,,,,,,,,30.3417742,,-97.7383614,,Elsie's,,,,,,,,,,,,,,,,,,,,,
,,,,,,,,,,,,restaurant,,,mexican,,,,,,,,,,,,,,,,,,,,,,,30.3415445,,-97.7391338,,Arandas,,,,,,,,,,,,,,,,,,,,,
,,,,,,,,,,,,bar,,,,,,,,,,,,,,,,,,,,,,,,,,30.340426,,-97.7385931,,Poodle Dog Lounge,,,,,,,,,,,,,,,,,,,,,
,,Austin,,The Frisco Shop,6801,78757,,Burnet Road,,,,restaurant,200,,"American, home cooking",,,,,,,,,,,,,,,,,,,,,,,30.3437964,,-97.7379751,,The Frisco,,,,,,,,,,,+1 512 459-6279,,,,no,,,,http://thefriscoaustin.com,yes,
,,,,,,,,,,,,bar,,,,,,,,,,,,,,,,,,,,,,,,,,30.3446186,,-97.736413,,Lala's,,,,,,,,,,,,,,,,,,,,,
,,,,,,,,,,,,restaurant,,,,,,,,,,,,,,,,,,,,,,,,,,30.3502257,,-97.7350998,,El Mercado,,,,,,,,,,,,,,,,,,,,,
,,,,,,,,,,,,restaurant,,,,,,,,,,,,,,,,,,,,,,,,,,30.3595133,,-97.7345247,,Madam Mam's,,,,,,,,,,,,,,,,,,,,,
,,,,,,,,,,,,restaurant,,,,,,,,,,,,,,,,,,,,,,,,,,30.307639,,-97.7419161,,EZ's Brick Oven & Grill,,,,,,,,,,,,,,,,,,,,,
,,,,,,,,,,,,restaurant,,,,,,,,,,,,,,,,,,,,,,,,,,30.3073735,,-97.7421749,,Banzai Sushi & Grill,,,,,,,,,,,,,,,,,,,,,
,,Austin,,,1106,,,West 38th Street,,,,restaurant,,,,,,,,,,,,,,,,,,,,,,,,,,30.3059582,,-97.7442691,,Doc's Motorworks,,,,,,,,,,,,,,,,,,,,yes,
,,,,,,,,,,,,restaurant,,,,,,,,,,,,,,,,,,,,,,,,,,30.3082553,,-97.7503631,,Russell's,,,,,,,,,,,,,,,,,,,,,
,,Austin,,,3704,78731,,Kerbey Lane,,,,restaurant,,,regional,,,,,,,,,,,,,,,,,,,,,,,30.3080182,,-97.7504833,,Kerbey Lane Cafe,,,,,,,,,,,,,,,,,,,http://www.kerbeylanecafe.com/,limited,
,,,,,,,,,,,,restaurant,,,,,,,,,,,,,,,,,,,,,,,,,,30.3367185,,-97.7579163,,Chez Zee,,,,,,,,,,,,,,,,,,,,,
,,,,,,,,,,,,restaurant,,,,,,,,,,,,,,,,,,,,,,,,,,30.3232566,,-97.7275905,,Titaya's Thai Cuisine,,,,,,,,,,,,,,,,,,,,,
,,,,,,,,,,,,school,,,,,,,,,,,,,,,,,,,,,,,,,,30.2997979,,-97.6868532,,Austin Peace Academy,,,,,,,,,,,,,,,,,,,,,
,,,,,,,,,,,,restaurant,,,,,,,,,,,,,,,,,,,,,,,,,,30.2954158,,-97.7423368,,Ruby's BBQ,,,,,,,,,,,,,,,,,,,,,
,,,,,,,,,,,,restaurant,,,,,,,,,,,,,,,,,,,,,,,,,,30.295601,,-97.7423711,,Milto's,,,,,,,,,,,,,,,,,,,,,
,,,,,,,,,,,,restaurant,,,,,,,,,,,,,,,,,,,,,,,,,,30.2953787,,-97.7432724,,Conan's Pizza,,,,,,,,,,,,,,,,,,,,yes,
,,,,,,,,,,,,restaurant,,,,,,,,,,,,,,,,,,,,,,,,,,30.2957196,,-97.7441221,,Drungo's,,,,,,,,,,,,,,,,,,,,,
,,,,,3009,,,Guadalupe Street,,,,restaurant,,(512)474-2575,thai,,,BTC payment via Menufy.,,,,,,,,,,,,,,,,,,,,30.2967459,,-97.7416594,,Thai Kitchen,,,,,,,,yes,,,,,,,,,,,http://thaikitchentx.com/,,
,,,,,,,,,,,,restaurant,,,,,,,,,,,,,,,,,,,,,,,,,,30.2958121,,-97.7409556,,Trudy's Texas Star,,,,,,,,,,,,,,,,,,,,,
,,,,,,,,,,,,bar,,,,,,,,,,,,,,,,,,,,,,,,,,30.3018518,,-97.7393505,,Nast'y,,,,,,,,,,,,,,,,,,,,,
,,,,,,,,,,,,restaurant,,,,,,,,,,,,,,,,,,,,,,,,,,30.2622549,,-97.7389741,,Iron Works Barbecue,,,,,,,,,,,,,,,,,,,,,
,,,,,10010,78759,,Capital of TX Hwy N,,,,restaurant,,,,,,,,,,,,,,,,,,,,,,,,,,30.3911344,,-97.7384912,yes,NXNW North By Northwest,,,,,,,,,,,,,,,,,,,http://www.nxnwbrew.com/,,
,,,,,,,,,,,,restaurant,,,chinese,,,,,,,,,,,,,,,,,,,,,,,30.432584,,-97.7714049,,Asia Cafe Sichuan,,,,,,,,,,,,,,,,,,,,,
,,Austin,US,,,78759,,10000 Research Blvd,,,,restaurant,,,american,,,,,,,,,,,,,,,,,,,,,,,30.390988,,-97.7479611,,Cheesecake Factory,,,,,,,,,,,,,,,,,,,,,
,,,,,900,,,W. Slaughter Lane,,,,restaurant,,,mexican,,,,,,,,,,,,,,,,,,,,,,,30.1832042,,-97.8476351,,Maudies Hacienda,,,,,,,,,,,,,,,,,,,,,
,,,,,850,,,W. Slaughter Lane,,,,restaurant,,,ICe_cream,,,31 flavors Ice cream,,,,,,,,,,,,,,,,,,,,30.1832487,,-97.8477981,,Baskin Robins,,,,,,,,,,,,,,,,,,,,,
,,,,,750,,,W. Slaughter Lane,,,,restaurant,,,american,,,,,,,,,,,,,,,,,,,,,,,30.1833377,,-97.8480556,,Galaxy Cafe,,,,,,,,,,,,,,,,,yes,,,,
,,,,,600,,,W. Slaughter Lane,,,,restaurant,,,italian,,,,,,,,,,,,,,,,,,,,,,,30.1835009,,-97.848253,,Brick Oven,,,,,,,,,,,,,,,,,,,,,
,,,,,190,,,Brodie Lane,,,,restaurant,,,Greek/Mediteranian,,,,,,,,,,,,,,,,,,,,,,,30.1847771,,-97.8475149,,Tino's Greek Cafe,,,,,,,,,,,,,,,,,,,,,
,,,,,120,,,Brodie Lane,,,,restaurant,,,asian,,,,,,,,,,,,,,,,,,,,,,,30.1851332,,-97.8472917,,Wok On Fire,,,,,,,,,,,,,,,,,,,,,
,,,,,,,,,,,,restaurant,,,,,,,,,,,,,,,,,,,,,,,,,,30.3292044,,-97.7315134,,Dart Bowl Cafe,,,,,,,,,,,,,,,,,,,,,
,,,,,,,,,,,,restaurant,,,tex-mex,,no,"Best Tex-Mex in Austin, Texas!",,,,,,,,,,,,,,,,,,,,30.221089,,-97.772538,,Casa Maria's,,,,,,,,,,,,,,,,,yes,,,,
,,,,,,,,,,,,restaurant,,,asian,,,,,,,,,,,,,,,,,,,,,,,30.3955201,,-97.7503376,,P.F. Changs,,,,,,,,,,,,,,,,,,,,,
,,,,,,,,,,,,restaurant,,,french,,,,,,,,,,,,,,,,,,,,,,,30.3957428,,-97.7472319,,la Madeleine,,,,,,,,,,,,,,,,,,,,,
,,,,,,,,,,,,restaurant,,,chinese,,,,,,,,,,,,,,,,,,,,,,,30.4001039,,-97.748023,,Twin Lion,,,,,,,,,,,,,,,,,,,,,
,,,,,,,,,,,,restaurant,,,italian,,,,,,,,,,,,,,,,,,,,,,,30.3988329,,-97.7490667,,Brick Oven,,,,,,,,,,,,,,,,,,,,,
,,,,,,,,,,,,restaurant,,,greek,,,,,,,,,,,,,,,,,,,,,,,30.3950324,,-97.7491981,,Tinos Greek Cafe,,,,,,,,,,,,,,,,,,,,,
,,,,,,,,,,,,bar,,,,,,,,,,,,,,,,,,,,,,,,,,30.2536572,,-97.7633983,,Saxon Pub,,,,,,,,,,,,,,,,,,,,,
,,,,,1930,,,West William Cannon Drive,,,,restaurant,,,Texas Style BBQ,,,,,,,,,yes,,,,,,,,,,,,,,30.2029899,,-97.8054428,,Bill Miller BBQ,,,,,,,,,,,,,,,,,,,,,
,,,,,,,,,,,,school,,,,,,,,,,,,,,,,,,,,,,,,,,30.5036915,,-97.8054393,,Cox Elementary,,,,,,,,,,,,,,,,,,,,,
,,,,,,,,,,,,restaurant,,,,,,,,,,,,,,,,,,,,,,,,,,30.3352645,,-97.8072898,,Trento Restaurant,,,,,,,,,,,,,,,,,,,http://www.trento360.com/,,
,,,,,,,,,,,,school,,,,,,,,,,,,,,,,,,,,,,,,,,30.3759941,playground,-97.747986,,Hill Elementary Playground,,,,,,,,,,,,,,,,,,,,,
,,,,,,,,,,,,restaurant,,,,,,,,,,,,,,,,,,,,,,,,,,30.1100218,,-97.5849554,,Gary's Grill,,,,,,,,,,,,,,,,,,,,,
,,,,,,,,,,,,bar,,,,,,,,,,,,,,,,,,,,,,,,,,30.2640071,,-97.7286588,,Rio Rita,,,,,,,,,,,,,,,,,,,,,
,,,,,,,,,,,,restaurant,,,,,,,,,,,,,,,,,,,,,,,,,,30.2723506,,-97.6907978,,Mr. Catfish,,,,,,,,,,,,,,,,,,,,,
,,,,,,,,,,,,school,,,,,,,,,,,,,,,,,,,,,,,,,,30.4423357,,-97.6448665,,Springhill Elementary,,,,,,,,,,,,,,,,,,,,,
,,,,,,,,,,,,restaurant,,,,,,,,,,,,,,,,,,,,,,,,,,30.4431497,,-97.6287518,,Pecan Street Grill,,,,,,,,,,,,,,,,,,,,,
,,,,,,,,,,,,school,,,,,,,,,,,,,,,,,,,,,,,,,,30.4774346,,-97.5626669,,Rowe Lane Elementary School,,,,,,,,,,,,,,,,,,,,,
,,,,,,,,,,,,restaurant,,,,,,,,,,,,,,,,,,,,,,,,,,30.4491846,,-97.7920347,,Kobe Japanese Steakhouse,,,,,,,,,,,,,,,,,,,,,
,,,,,,,,,,,,restaurant,,,,,,,,,,,,,,,,,,,,,,,,,,30.4463358,,-97.7793674,,Jardin Corona Mexican Food,,,,,,,,,,,,,,,,,,,,,
,,,,,,,,,,,,restaurant,,,,,,,,,,,,,,,,,,,,,,,,,,30.4343308,,-97.7714144,,Jim's,,,,,,,,,,,,,,,,,,,,,
,,,,,,,,,,,,restaurant,,,,,,Best breakfast taco's in town.,,,,,,,,,,,,,,,,,,,,30.2841763,,-97.7189427,,Mi Madre's,,,,,,,,,,,+1 512 480 8441,,,,,,,,www.mimadresrestaurant.com,,
,,,,,,,,,,,,restaurant,,,,,,,,,,,,,,,,,,,,,,,,,,30.3915519,,-97.7386262,,Iron Cactus,,,,,,,,,,,,,,,,,,,,,
,,,,,,,,,,,,restaurant,,,,,,,,,,,,,,,,,,,,,,,,,,30.4473236,,-97.8101558,,Mesa Rosa,,,,,,,,,,,,,,,,,,,,,
,Mexican Food,,,,,,,,,,,restaurant,,,,,,,,,,,,,,,,,,,,,,,,,,30.4395219,,-97.6193236,,El Ricon,,,,,,,,,,,,,,,,,,,,,
,,,,,,,,,,,,restaurant,,,,,,,,,,,,,,,,,,,,,,,,,,30.4506011,,-97.7900185,,Pacific Star,,,,,,,,,,,,,,,,,,,,,
,,,,,,,,,,,,restaurant,,,indian,,,,,,,,,,,,,,,,,,,,,,,30.2381148,,-97.7394025,,WhipIn,,,,,,,,,,,,,,convenience,,,,,,,
,,,,,,,,,,,,restaurant,,,,,,,,,,,,,,,,,,,,,,,,,,30.2560943,,-97.7632178,,The Highball,,,,,,,,,,,,,,,,10pin,,,,,
,,,,,,,,,,,,restaurant,,,,,,,,,,,,,,,,,,,,,,,,,,30.2494309,,-97.7682259,,La Feria,,,,,,,,,,,,,,,,,,,,,
,,,,,1816,78704,,South Lamar Boulevard,,,,restaurant,,,mexican,,,,,,,,,,,,,,,,,,,,,,,30.2499685,,-97.7670565,,Sazon,,,,,,,,,,,(512) 326-4395,,,,,,,,,,
,,,,,,,,,,,,restaurant,,,,,,,,,,,,,,,,,,,,,,,,,,30.2483698,,-97.7693524,,Olivia,,,,,,,,,,,,,,,,,,,,,
,,,,,,,,,,,,restaurant,,,,,,,,,,,,,,,,,,,,,,,,,,30.2415436,,-97.7833214,,Chinatown,,,,,,,,,,,,,,,,,,,,,
,,,,,,,,,,,,restaurant,,,,,,,,,,,,,,,,,,,,,,,,,,30.2414134,,-97.7589557,,Winebelly,,,,,,,,,,,,,,,,,,,,,
,,,,,,,,,,,,restaurant,,,mexican,,,,,,,,,,,,,,,,,,,,,,,30.237152,,-97.7494097,,Curra's Grill,,,,,,,,,,,,,,,,,,,,,
,,,,,534,78704-5639,,East Oltorf Street,,,,restaurant,,,mediterranean,,,,,,,,,,,,,,,,,,,,,,,30.2371474,,-97.7496672,,Tarbouch Restaurant,,,,,,,,,,,,,,,,,,,,,
,,,,,,,,,,,,restaurant,,,chinese,,,,,,,,,,,,,,,,,,,,,,,30.2297317,,-97.7299369,,888 FUSION ASIAN CUISINE,,,,,,,,,,,,,,,,,,,,,
,,,,,,,,,,,,restaurant,,,,,,,,,,,,,,,,,,,,,,,,,,30.2298708,,-97.730409,,,,,,,,,,,,,,,,,,,,,,,
,,,,,,,,,,,,restaurant,,,thai,,,,,,,,,,,,,,,,,,,,,,,30.2479434,,-97.7617143,,Thai Fresh,,,,,,,,,,,,,,,,,,,,,
,,,,,,,,,,,,restaurant,,,mexican,,,,,,,,,,,,,,,,,,,,,,,30.2458558,,-97.7571455,,La Mexicana Bakery,,,,,,,,,,,,,,,,,,,,,
,,,,,,,,,,,,restaurant,,,,,,,,,,,,,,,,,,,,,,,,,,30.2461944,,-97.7560714,,Soup Peddler,,,,,,,,,,,,,,,,,,,,,
,,,,,,,,,,,,restaurant,,,mexican,,,,,,,,,,,,,,,,,,,,,,,30.245295,,-97.7574567,,Polvo's,,,,,,,,,,,,,,,,,,,,,
,,,,,,,,,,,,restaurant,,,,,,,,,,,,,,,,,,,,,,,,,,30.2523012,,-97.7483054,,Doc's MotorWorks Bar & Grill,,,,,,,,,,,,,,,,,,,,,
,,,,,,,,,,,,restaurant,,,mexican,,,,,,,,,,,,,,,,,,,,,,,30.249127,,-97.7501239,,Guerro's,,,,,,,,,,,,,,,,,,,,yes,
,,,,,,,,,,,,restaurant,,,,,,,,,,,,,,,,,,,,,,,,,,30.2488397,,-97.7502205,,South Congress Cafe,,,,,,,,,,,,,,,,,,,,,
,,,,,,,,,,,,restaurant,,,,,,,,,,,,,,,,,,,,,,,,,,30.2499704,,-97.7500381,,Perla's,,,,,,,,,,,,,,,,,,,,,
,,,,,,,,,,,,restaurant,,,,,,,,,,,,,,,,,,,,,,,,,,30.2516594,,-97.7491342,,Snack Bar,,,,,,,,,,,,,,,,,,,,limited,
,,,,,,,,,,,,bar,,,,,,,,,,,,,,,,,,,,,,,,,,30.2505728,,-97.74955,,,,,,,,,,,,,,,,,,,,,,,
,,,,,,,,,,,,restaurant,,,,,,,,,,,,,,,,,,,,,,,,,,30.2525144,,-97.740924,,Joe's Crab Shack,,,,,,,,,,,,,,,,,,,,yes,
,,,,,,,,,,,,restaurant,,,,,,,,,,,,,,,,,,,,,,,,,,30.246897,,-97.7558981,,Lenoir,,,,,,,,,,,,,,,,,,,,,
,,,,,,,,,,,,restaurant,,,,,,,,,,,,,,,,,,,,,,,,,,30.2464589,,-97.7510901,,Woodland,,,,,,,,,,,,,,,,,,,,,
,,,,,,,,,,,,restaurant,,,italian,,,,,,,,,,,,,,,,,,,,,,,30.2479272,,-97.7506887,,Vespaio,,,,,,,,,,,,,,,,,,,,,
,,,,,,,,,,,,restaurant,,,mexican,,,,,,,,,,,,,,,,,,,,,,,30.2513434,,-97.7545812,,El Mercado,,,,,,,,,,,,,,,,,,,,,
,,,,,,,,,,,,restaurant,,,,,,,,,,,,,,,,,,,,,,,,,,30.2477844,,-97.7551015,,Freddy's Place,,,,,,,,,,,,,,,,,,,,yes,
,,,,,,,,,,,,restaurant,,,mexican,,,,,,,,,,,,,,,,,,,,,,,30.2468507,,-97.7564399,,El Chile,,,,,,,,,,,,,,,,,,,,,
,,,,,,,,,,,,restaurant,,,mexican,,,,,,,,,,,,,,,,,,,,,,,30.2430066,,-97.758921,,Little Mexico,,,,,,,,,,,,,,,,,,,,,
,,,,,,,,,,,,restaurant,,,mexican,,,,,,,,,,,,,,,,,,,,,,,30.2406153,,-97.7609112,,Tacaria Arandas,,,,,,,,,,,,,,,,,,,,,
,,,,,,,,,,,,restaurant,,,,,,,,,,,,,,,,,,,,,,,,,,30.2141108,,-97.7546182,,Furr's Family Restaurant,,,,,,,,,,,,,,,,,,,,,
,,,,,,,,,,,,restaurant,,,,,,,,,,,,,,,,,,,,,,,,,,30.2242708,,-97.7634777,,El Borrego de Oro,,,,,,,,,,,,,,,,,,,,,
,,,,,,,,,,,,restaurant,,,,,,,,,,,,,,,,,,,,,,,,,,30.2720602,,-97.7541144,,24,,,,,,,,,,,,,,,,,,,,,
,,,,,,,,,,,,restaurant,,,,,,,,,,,,,,,,,,,,,,,,,,30.2804408,,-97.7591677,,Jeffrey's,,,,,,,,,,,,,,,,,,,,,
,,,,,,,,,,,,restaurant,,,,,,,,,,,,,,,,,,,,,,,,,,30.2296069,,-97.819725,,La Madelaine,,,,,,,,,,,,,,,,,,,,,
,,,,,,,,,,,,school,,,,,,,,,,,,,,,,,,,,,,,,,,30.507825,,-97.6130363,,Kids R Kids,,,,,,,,,,,,,,,,,,,,,
,,,,,,,,,,,,restaurant,,,,,,,,,,,no,,,,,,,,,,,,,,,30.263063,,-97.762359,no,Baby Acapulco,,,,,,no,yes,,,,,,,,,,yes,,,limited,
,,,,,,,,,,,,restaurant,,,,,,,,,,,,,,,,,,,,,,,,,,30.2644346,,-97.7614257,,Casa de Luz,,,,,,,,,,,,,,,,,,,,,
,,,,,,,,,,,,school,,,,,,,,,,,,,,,,,,,,,,,,,,30.274481,,-97.7809714,,Austin Jiu-Jitsu,,,,,,,,,,,,,,,,,,,,,
,,,,,,,,,,,,restaurant,,,,,,,,,,,,,,,,,,,,,,,,,,30.360786,,-97.7893806,,Waterloo Ice House,,,,,,,,,,,,,,,,,,,,,
,,,,,,,,,,,,restaurant,,,,,,,,,,,,,,,,,,,,,,,,,,30.2471951,,-97.7775121,,Mr. Natural,,,,,,,,,,,,,,bakery,,,,,http://www.mrnatural-austin.com/,,
,,,,,,,,,,,,restaurant,,,,,,,,,,,,,,,,,,,,,,,,,,30.4632636,,-97.8149414,,North & South China,,,,,,,,,,,,,,,,,,,,,
,,,,,,,,,,,,restaurant,,,,,,,,,,,,,,,,,,,,,,,,,,30.4054629,,-97.8745269,,Oasis,,,,,,,,,,,,,,,,,,,,,
,,,,,,,,,,,,school,,,,,,,,,,,,,,,,,,,,,,,,,,30.4568626,,-97.8068999,,,,,,,,,,,,,,,,,,,,,,,
,,,,,,,,,,,,school,,,,,,,,,,,,,,,,,,,,,,,,,,30.4770565,,-97.830203,,Naumann Elementary School,,,,,,,,,,,,,,,,,,,,,
,,,,,,,,,,,,school,,,,,,,,,,,,,,,,,,,,,,,,,,30.1522738,,-97.8337016,,Jackie's Private Education,,,,,,,,,,,,,,,,,,,,,
,,,,,,,,,,,,school,,,,,,,,,,,,,,,,,,,,,,,,,,30.2731608,,-97.6723872,,Texas Empowerment Academy,,,,,,,,,,,,,,,,,,,,,
,,,,,,,,,,,,restaurant,,,,,,,,,,,,,,,,,,,,,,,,,,30.4008138,,-97.721438,,Technique,,,,,,,,,,,,,,,,,,,,,
,,,,,,,,,,,,school,,,,,,,,,,,,,,,,,,,,,,,,,,30.4006694,,-97.7215599,,Le Cordon Bleu College of Culinary Arts Austin,,,,,,,,,,,,,,,,,,,,,
,,,,,,,,,,,an american grill,restaurant,,,,,,,,,,,,,,,,,,,,,,,,,,30.3994579,,-97.7244842,,urban,,,,,,,,,,,,,,,,,,,,,
,,,,,10910,,,Domain Drive,,,,restaurant,,,italian,,,,,,,,,,,,,,,,,,,,,,,30.3950453,,-97.7269507,,Maggiano's Little Italy,,,,,,,,,,,,,,,,,,,,,
,,,,,,,,,,,,restaurant,,,,,,,,,,,,,,,,,,,,,,,,,,30.400227,,-97.725989,,Gloria's,,,,,,,,,,,,,,,,,,,,,
,,,,,,,,,,,,restaurant,,,,,,,,,,,,,,,,,,,,,,,,,,30.4015294,,-97.7272114,,Kona Grill,,,,,,,,,,,,,,,,,,,,,
,,,,,,,,,,,,restaurant,,,,,,,,,,,,,,,,,,,,,,,,,,30.4024976,,-97.726251,,Grand Lux Café,,,,,,,,,,,,,,,,,,,,,
,,,,,,,,,,,,restaurant,,,,,,,,,,,,,,,,,,,,,,,,,,30.3833253,,-97.7374699,,Dave & Buster's,,,,,,,,,,,,,,,,,,,,,
,,,,,,,,,,,,restaurant,,,,,,,,,,,,,,,,,,,,,,,,,,30.4027966,,-97.7258494,,Daily Grill,,,,,,,,,,,,,,,,,,,,,
,,,,,,,,,,,,restaurant,,,steak_house,,,,,,,,,,,,,,,,,,,,,,,30.4030816,,-97.7256638,,Fleming's,,,,,,,,,,,,,,,,,,,www.FlemingsSteakhouse.com,,
,,,,,,,,,,,,restaurant,,,,,,,,,,,,,,,,,,,,,,,,,,30.4021757,,-97.7266136,,Blackfinn Ameripub,,,,,,,,,,,,,,,,,,,,,
,,,,,408 C,78751,,East 43rd Street,,,,restaurant,,,italian,,,,,,,,,,,,,,,,,,,,,,,30.304895,,-97.7262332,,Asti,,,,,,,,,,,,,,,,,,,http://www.astiaustin.com/asti/,,
,,,,,,,,,,,,restaurant,,,,,,,,,,,,,,,,,,,,,,,,,,30.3149667,,-97.7354499,,Chedd's,,,,,,,,,,,,,,,,,,,,,
,,,,,,,,,,,,restaurant,,,,,,,,,,,,,,,,,,,,,,,,,,30.3151724,,-97.7336577,,snap,,,,,,,,,,,,,,,,,,,,,
,,,,,,,,11410 Century Oaks Terrace Suite #104,,,,bar,,,,,,,,,,,,,,,,,,,,,,,,,,30.4020606,,-97.7263974,,CRÚ Food & Wine Bar,,,,,,,,,,,,,,,,,,,,,
,,,,,,,,,,,,bar,,,,,,,,,,,,,,,,,,,,,,,,,,30.3961623,,-97.7195839,,Detour,,,,,,,,,,,,,,,,,,,,,
,,,,,,,,,,,,restaurant,,,mexican,,,,,,,,,,,,,,,,,,,,,,,30.3950774,,-97.7484716,,Bullritos,,,,,,,,,,,,,,,,,,,,,
,,,,,,,,,,,,restaurant,,,japanese,,,,,,,,,,,,,,,,,,,,,,,30.3999414,,-97.7485126,,Fujiyama,,,,,,,,,,,,,,,,,,,,,
,,,,,,,,,,,,bar,,,,,,,,,,,,,,,,,,,,,,,,,,30.4004938,,-97.7039848,,Canary Roost,,,,,,,,,,,,,,,,,,,,,
,,,,,,,,,,,,restaurant,,,,,,,,,,,,,,,,,,,,,,,,,,30.3871913,,-97.7333726,,Chuck E. Cheese's,,,,,,,,,,,,,,,,,,,,,
,,,,,,,,,,,,restaurant,,,,,,,,,,,,,,,,,,,,,,,,,,30.3895722,,-97.7324885,,RedBrick Pizza,,,,,,,,,,,,,,,,,,,,,
,,,,,,,,,,,,restaurant,,,sushi,,,,,,,,,,,,,,,,,,,,,,,30.3888001,,-97.7329038,,how do you roll?,,,,,,,,,,,,,,,,,,,,,
,,,,,,,,,,,,restaurant,,,,,,,,,,,,,,,,,,,,,,,,,,30.3899093,,-97.733345,,Chipotle Mexican Grill,,,,,,,,,,,,,,,,,,,,,
,,,,,11400h,,,,,,,school,,,,,,,,,,,,,,,,,,,,,,,,,,30.4083158,,-97.730049,,Hyde Park Baptist High School,,,,,,,,,,,,,,,,,,,,,
,,,,,4500,78751,,Duval St,,,,restaurant,,,vegetarian,,,,,only,,,,,,,,,,,,,,,,,,30.3071695,,-97.7248904,,Juiceland,,,,,,,,,,,,,,,,,,,http://www.juicelandaustin.com/home,,
,,,,,5111,78751,,Airport Boulevard,,,,restaurant,,,pizza,,,,,,,,,,,,,,,,,,,,,,,30.3127083,,-97.7150011,,House Pizzeria,,,,,,,,,,,,,,,,,,,http://housepizzeria.com/,,
,,,,,,,,,,,,restaurant,,,,,,,,,,,,,,,,,,,,,,,,,,30.487143,,-97.6746272,,Joe's Crab Shack,,,,,,,,,,,,,,,,,,,,,
,,,,,,,,,,,,restaurant,,,,,,,,,,,,,,,,,,,,,,,,,,30.4856879,,-97.674562,,Macaroni Grill,,,,,,,,,,,,,,,,,,,,,
,,,,,,,,,,,,restaurant,,,,,,,,,,,,,,,,,,,,,,,,,,30.4438527,,-97.6668881,,Fish Daddy's Seafood,,,,,,,,,,,,,,,,,,,,,
,,,,,,,,,,,,restaurant,,,,,,,,,,,,,,,,,,,,,,,,,,30.4445403,,-97.6667973,,Chedder's,,,,,,,,,,,,,,,,,,,,,
,,,,,,,,,,,,restaurant,,,,,,,,,,,,,,,,,,,,,,,,,,30.4338282,,-97.6707659,,IHOP,,,,,,,,,,,,,,,,,,,,,
,,,,,,,,,,,,restaurant,,,,,,,,,,,,,,,,,,,,,,,,,,30.4232324,,-97.6704546,,Baby Acapulco,,,,,,,,,,,,,,,,,,,,,
,,,,,,,,,,,,restaurant,,,,,,,,,,,,,,,,,,,,,,,,,,30.3752858,,-97.6729927,,Vazquez Mexican Restaurant,,,,,,,,,,,,,,,,,,,,,
,,,,,,,,,,,,restaurant,,,,,,,,,,,,,,,,,,,,,,,,,,30.3745401,,-97.6717349,,Pizza Hut,,,,,,,,,,,,,,,,,,,,,
,,,,,,,,,,,,restaurant,,,,,,,,,,,,,,,,,,,,,,,,,,30.3568054,,-97.6900028,,Los Potrillos,,,,,,,,,,,,,,,,,,,,,
,,,,,,,,,,,,restaurant,,,,,,,,,,,,,,,,,,,,,,,,,,30.3377003,,-97.7020103,,Applebee's,,,,,,,,,,,,,,,,,,,,,
,,,,,,,,,,,,restaurant,,,,,,,,,,,,,,,,,,,,,,,,,,30.3370761,,-97.7022969,,Antonio's Tex-Mex,,,,,,,,,,,,,,,,,,,,,
,,,,,,,,,,,,restaurant,,,,,,,,,,,,,,,,,,,,,,,,,,30.3324764,,-97.7052418,,Denny's,,,,,,,,,,,,,,,,,,,,,
,,,,,,,,,,,,restaurant,,,,,,,,,,,,,,,,,,,,,,,,,,30.3161337,,-97.7083756,,Baby Acapulco,,,,,,,,,,,,,,,,,,,,,
,,,,,,,,,,,,restaurant,,,,,,,,,,,,,,,,,,,,,,,,,,30.3208467,,-97.7060497,,Texas Land & Cattle Steakhouse,,,,,,,,,,,,,,,,,,,,,
,,,,,,,,,,,,restaurant,,,,,,,,,,,,,,,,,,,,,,,,,,30.2942474,,-97.7205589,,Cafe Hornitos,,,,,,,,,,,,,,,,,,,,,
,,,,,,,,,,,,restaurant,,,,,,,,,,,,,,,,,,,,,,,,,,30.2886161,,-97.7230412,,Star Seeds Cafe,,,,,,,,,,,,,,,,,,,,,
,,,,,2808,,,N IH-35,,,,restaurant,,,ethiopian,,,,,,,,,,,,,,,,,,,,,,,30.2872884,,-97.7250739,,Aster's Ethiopian Restaurant,,,,,,,,,,,(512) 469-5966,,,,,,,,astersethiopian.com,,
,,,,,,,,,,,,restaurant,,,,,,,,,,,,,,,,,,,,,,,,,,30.2767055,,-97.7296476,,Denny's,,,,,,,,,,,,,,,,,,,,yes,
,,,,New India Cuisine,2304,78704,,S Congress Ave,,,,restaurant,,,indian,,,,,,,,,,,,,,,,,,,,,,,30.2398797,,-97.7531192,,New India Cuisine,,,,,,,,,,,,,,,,,,,http://www.newindia.us/,,
,,,,Southside Flying Pizza,2206,78704,,South Congress Avenue,,,,restaurant,,,pizza,,,,,,,,,,,,,,,,,,,,,,,30.2410545,,-97.7528939,,Southside Flying Pizza,,,,,,,,,,,,,,,,,,,http://www.southsideflyingpizza.com/,,
,,,,Tree House Italian Grill,2201,78704,,College Avenue,,,,restaurant,,,salad,,,,,,,,,,,,,,,,,,,,,,,30.2412899,,-97.7520837,,Vinaigrette,,coming soon,,,,,,,,,,,,,,,,,,,
,,,,2728 South Congress Ave,2728,78704,,South Congress Avenue,,,,restaurant,,,Cuban,,,,,,,,,,,,,,,,,,,,,,,30.2349266,,-97.7573033,,Habana Restaurant and Bar,,,,,,,,,,,,,,,,,,,http://www.habanaaustin.com/,,
,,,,Suite # E1,4211,78704,,South Lamar Blvd,,,,restaurant,,,vietnamese,,,,,,,,,,,,,,,,,,,,,,,30.23371,,-97.7930115,,Dong Nai,,,,,,,,,,,,,,,,,,,,,
,,,,,,,,,,,,restaurant,,,,,,,,,,,,,,,,,,,,,,,,,,30.3366014,,-97.7177159,,La Preferida Grill,,,,,,,,,,,,,,,,,,,,,
,,Austin,,,6801,78752,TX,Airport Blvd,,,,restaurant,,,korean,,,,,,,,,,,,,,,,,,,,,,,30.3340239,,-97.7165344,,Arirang,,,,Mo-Sa 11:00-22:00; Su 12:00-21:00,,,,,,,,,,,,,,,http://arirangaustin.com/,,
,,,,1605 E. Oltorf,1605,78741,,East Oltorf,,,,restaurant,,,indian,,,,,,,,,,,,,,,,,,,,,,,30.2325951,,-97.7406066,,Tandoori Bistro,,,,,,,,,,,,,,,,,,,http://tandooribistroaustin.net/,,
,,,,Suite # 14,2400,78741,,East Oltorf Street,,,,restaurant,,,indonesian,,,indonesian weekend lunch buffet,,,,,,,,,,,,,,,,,,,,30.2294109,,-97.7293306,,Java Noodles,,,,,,,,,,,,,,,,,,,,,
,,,,Suite # 501,2700,78757,,West Anderson Lane,,,,restaurant,,,korean,,,,,,,,,,,,,,,,,,,,,,,30.3593073,,-97.7339922,,Korea House,,,,,,,,,,,,,,,,,,,,,
,,,,,4534,78745,,Westgate Boulevard,,,,restaurant,,,chinese,,,"real, authentic cantonese food in south austin",,,,,,,,,,,,,,,,,,,,30.2307782,,-97.8026944,,Tien Jin Chinese Restaurant,,,,,,,,,,,(512) 892-6699,,,,,,,,http://www.tienjinrestaurant.com/,,
,,,,Suite # 121,6929,78752,,Airport Blvd,,,,restaurant,,,korean,,,access from inside Han Yang Supermarket,,,,,,,,,,,,,,,,,,,,30.3361676,,-97.7210636,,Han Yang Market Cafe,,,,,,,,,,,,,,,,,,,,,
,,,,,,,,,,,3 Forks,restaurant,,,steak_house,,,,,,,,,,,,,,,,,,,,,,,30.2641976,,-97.7467468,,III Forks,,,,,,,,,,,,,,,,,,,,,
,,,,Suite # 146,8557,78758,,Research Blvd,,,,restaurant,,,vietnamese,,,best imperial rolls!,,,,,,,,,,,,,,,,,,,,30.3617837,,-97.7153938,,Sunflower Restaurant,,,,,,,,,,,(512) 339-7860,,,,,,,,,,
,,,,Suite #116,8557,78758,,Research Blvd,,,,restaurant,,,chinese,,,,,,,,,,,,,,,,,,,,,,,30.361094,,-97.7156191,,Din Ho Chinese BBQ,,,,,,,,,,,(512) 832-8788,,,,,,,,dinhochinesebbq.com,,
,,,,,2910,78704,,South Congress Ave,,,,restaurant,,,mexican,,,,,,,,,,,,,,,,,,,,,,,30.2331421,,-97.7586735,,El Gallo Mexican Restaurant,,,,,,,,,,,(512) 444-2205,,,,,,,,,,
,,,,,,,,,,,,restaurant,,,,,,,,,,,,,,,,,,,,,,,,,,30.2609714,,-97.7373575,,IHOP,,,,,,,,,,,,,,,,,,,,yes,
,,,,,,,,,,,,bar,,,,,,,,,,,,,,,,,,,,,,,,,,30.2668401,,-97.736869,,Emo's,,,,,,,,,,,,,,,,,,,,,
,,,,,,,,,,,,bar,,,,,,,,,,,,,,,,,,,,,,,,,,30.267755,,-97.7365068,,Beer Land,,,,,,,,,,,,,,,,,,,,,
,,,,,,,,,,,,bar,,,,,,,,,,,,,,,,,,,,,,,,,,30.26794,,-97.7364445,,Red Eyed Fly,,,,,,,,,,,,,,,,,,,,,
,,,,,,,,,,,,restaurant,,,,,,,,,,,,,,,,,,,,,,,,,,30.2687136,,-97.7365652,,Jaimes Spanish Village,,,,,,,,,,,,,,,,,,,,,
,,Austin,,,900,78701,,Red River Street,,,,bar,,,,,,,,,,,,,,,,,,,,,,,,,,30.2696184,,-97.7363666,,Cheer Up Charlie's,,,,,,,,,,,(512) 431-2133,,,,,,,,https://www.facebook.com/cheerupcharliesaustin,,
,,,,,,,,,,,,restaurant,,,,,,,,,,,,,,,,,,,,,,,,,,30.2665522,,-97.7369406,,El Sol Y La Luna,,,,Mo-Th 11:00-22:00;Fr 11:00-12:00;Sa 9:00-12:00;Su 9:00-16:00,,,,,,,(512) 444-7770,,,,,,,,http://elsolylalunaaustin.com/,,
,,,,,,,,,,,,bar,,,,,,,,,,,,,,,,,,,,,,,,,,30.2665213,,-97.7377332,,Flamingo Cantina,,,,,,,,,,,(512) 494-9336,,,,,,,,http://flamingocantina.com/,,
,,,,,,,,,,,,restaurant,,,,,,,,,,,,,,,,,,,,,,,,,,30.2665547,,-97.7378522,,Hoek's Pizza,,,,,,,,,,,,,,,,,,,,,
,,,,,,,,,,,,bar,,,,,,,,,,,,,,,,,,,,,,,,,,30.2665898,,-97.7379787,,Dirty Dog Bar,,,,,,,,,,,,,,,,,,,https://dirtydogbar.com/,,
,,,,,,,,,,,,bar,,,,,,,,,,,,,,,,,,,,,,,,,,30.266636,,-97.7381443,,Coyote Ugly,,,,Mo-Th 17:00-2:00;Fr-Su 12:00-2:00,,,,,,,,,,,,,,,http://www.coyoteuglysaloon.com/austin/,,
,,,,,,,,,,,,bar,,,,,,,,,,,,,,,,,,,,,,,,,,30.266712,,-97.7385615,,Pete's Dueling Piano Bar,,,,,,,,,,,,,,,,,,,,,
,,,,,,,,,,,,restaurant,,,,,,,,,,,,,,,,,,,,,,,,,,30.2670389,,-97.7386841,,Roppolo's Pizza,,,,,,,,,,,,,,,,,,,,,
,,,,,,,,,,,,bar,,,,,,,,,,,,,,,,,,,,,,,,,,30.2671072,,-97.7389289,,Mooseknuckle,,,,,,,,,,,,,,,,,,,,,
,,,,,,,,,,,,restaurant,,,,,,,,,,,,,,,,,,,,,,,,,,30.2672622,,-97.7394843,,Iron Cactus,,,,"Mo-Th 11:00-22:30;Fr,Sa 11:00-23:00;Su 10:00-22:30",,,yes,,,,(512) 472-9240,,,,,,,,http://ironcactus.com/austin-downtown,,
,,,,,,,,,,,,bar,,,,,,,,,,,,,,,,,,,,,,,,,,30.2670792,,-97.73981,,Blind Pig,,,,,,,,,,,,,,,,,,,,,
,,,,,,,,,,,,bar,,,,,,,,,,,,,,,,,,,,,,,,,,30.2673492,,-97.739796,,Shakespeare's,,,,,,,,,,,+1 512-472-1666,,,,,,,,http://www.shakespearesaustin.com/,,
,,,,,,,,,,,,restaurant,,,,,,,,,,,,,,,,,,,,,,,,,,30.2673807,,-97.7399087,,Old Pecan Street Cafe,,,,,,,,,,,+1 512-478-2491,,,,,,,,http://oldpecanstcafe.com/,,
,,,,,,,,,,,,bar,,,,,,,,,,,,,,,,,,,,,,,,,,30.2670807,,-97.74004,,311,,,,,,,,,,,,,,,,,,,,,
,,,,,,,,,,,,bar,,,,,,,,,,,,,,,,,,,,,,,,,,30.2674486,,-97.7401125,,Vice,,,,,,,,,,,,,,,,,,,,,
,,,,,,,,,,,,restaurant,,,,,,,,,,,,,,,,,,,,,,,,,,30.2675896,,-97.7406574,,Bikinis Sports Bar & Grill,,,,,,,,,,,,,,,,,,,http://www.bikinissportsbarandgrill.com/Locations/austin-tx-6th-st/,,
,,,,,,,,,,,,bar,,,,,,,,,,,,,,,,,,,,,,,,,,30.267299,,-97.7405942,,Darwin's,,,,,,,,,,,,,,,,,,,,,
,,,,,,,,,,,,bar,,,,,,,,,,,,,,,,,,,,,,,,,,30.2672482,,-97.7407594,,Soho,,,,,,,,,,,,,,,,,,,,,
,,,,,,,,,,,,bar,,,,,,,,,,,,,,,,,,,,,,,,,,30.2671957,,-97.7407252,,Chuggin' Monkey,,,,,,,,,,,,,,,,,,,,,
,,,,,,,,,,,,restaurant,,,,,,,,,,,,,,,,,,,,,,,,,,30.2673138,,-97.7409874,,Marisco Grill,,,,,,,,,,,,,,,,,,,,,
,,,,,,,,,,,,bar,,,,,,,,,,,,,,,,,,,,,,,,,,30.2674314,,-97.7412007,,Buffalo Billiards,,,,,,,,,,,,,,,,,,,,,
,,,,,,,,,,,,bar,,,,,,,,,,,,,,,,,,,,,,,,,,30.2677181,,-97.7411179,,B. D. Riley's Irish Pub & Restaurant,,,,,,,,,,,+1 512-494-1335,,,,,,,,http://bdrileys.com/,,
,,,,,,,,,,,,restaurant,,,,,,,,,,,,,,,,,,,,,,,,,,30.2677567,,-97.7412563,,Eureka,,,,,,,,,,,,,,,,,,,,,
,,,,,,,,,,,,restaurant,,,,,,,,,,,,,,,,,,,,,,,,,,30.2680832,,-97.7421017,,Louie's,,,,,,,,,,,,,,,,,,,,,
,,,,,,,,,,,,bar,,,,,,,,,,,,,,,,,,,,,,,,,,30.2685859,,-97.7454268,,Hi-Lo,,,,,,,,,,,,,,,,,,,,,
,,,,,,,,,,,,restaurant,,,,,,,,,,,,,,,,,,,,,,,,,,30.2686611,,-97.7454947,,Belmont,,,,,,,,,,,,,,,,,,,,,
,,,,,,,,,,,,restaurant,,,,,,,,,,,,,,,,,,,,,,,,,,30.2687228,,-97.745845,,Maiko Sushi,,,,,,,,,,,,,,,,,,,,,
,,,,,,,,,,,,bar,,,,,,,,,,,,,,,,,,,,,,,,,,30.2696906,,-97.7481472,,Little Woodrow's,,,,,,,,,,,,,,,,,,,,,
,,,,,,,,,,,,restaurant,,,,,,,,,,,,,,,,,,,,,,,,,,30.2699721,,-97.7490098,,Union Park,,,,,,,,,,,,,,,,,,,,,
,,,,,,,,,,,,bar,,,,,,,,,,,,,,,,,,,,,,,,,,30.2700147,,-97.7491454,,Momo's,,,,,,,,,,,,,,,,,,,,,
,,,,,,,,,,,,bar,,,,,,,,,,,,,,,,,,,,,,,,,,30.27407,,-97.7634339,,Donn's Depot,,,,,,,,,,,,,,,,,,,,,
,,,,,,,,,,,,restaurant,,,,,,,,,,,,,,,,,,,,,,,,,,30.2717214,,-97.7577953,,Juanita's Tacos,,,,,,,,,,,,,,,,,,,,,
,,,,,,,,,,,,restaurant,,,,,,,,,,,,,,,,,,,,,,,,,,30.2708184,,-97.7563315,,Corazon,,,,,,,,,,,,,,,,,,,,yes,
,,,,,,,,,,,,bar,,,,,,,,,,,,,,,,,,,,,,,,,,30.2695924,,-97.7530788,,Tinest Bar in Texas,,,,,,,,,,,,,,,,,,,,,
,,,,,,,,,,,,bar,,,,,,,,,,,,,,,,,,,,,,,,,,30.2661815,,-97.7403564,,Antone's,,,,,,,,,,,,,,,,,,,,,
,,,,,,,,,,,,bar,,,,,,,,,,,,,,,,,,,,,,,,,,30.2674644,,-97.7453298,,Lucky Lounge,,,,,,,,,,,,,,,,,,,,,
,,,,,,,,,,,,restaurant,,,,,,,,,,,,,,,,,,,,,,,,,,30.2671661,,-97.7440158,,Chinatown,,,,,,,,,,,,,,,,,,,,,
,,,,,,,,,,,,bar,,,,,,,,,,,,,,,,,,,,,,,,,,30.2675086,,-97.7439557,,Roial,,,,,,,,,,,,,,,,,,,,,
,,,,,,,,,,,,bar,,,,,,,,,,,,,,,,,,,,,,,,,,30.2670884,,-97.7438191,,Gruv,,,,,,,,,,,,,,,,,,,,,
,,,,,,,,,,,,bar,,,,,,,,,,,,,,,,,,,,,,,,,,30.2670626,,-97.7435033,,Lanai,,,,,,,,,,,,,,,,,,,,,
,,,,,,,,,,,,bar,,,,,,,,,,,,,,,,,,,,,,,,,,30.2667198,,-97.7422828,,Canvas,,,,,,,,,,,,,,,,,,,,,
,,Austin,,,121,78701,,East 5th Street,,,,bar,,,,,,,,,,,,,,,,,,,,,,,,,,30.2665872,,-97.7420908,,HandleBar,,,,Mo-Sa 14:00-02:00; Su 12:00-02:00,,,,,,,,,,,,,,,http://handlebaraustin.com/,,
,,,,,,,,,,,,restaurant,,,,,,,,,,,,,,,,,,,,,,,,,,30.2662223,,-97.7405459,,Eddie V's,,,,,,,,,,,,,,,,,,,,,
,,,,,440,,,,,,,restaurant,,,,,,,,,,,,,,,,,,,,,,,,,,30.2656731,,-97.7482531,,Malaga Tapas,,,,,,,,,,,,,,,,,,,,yes,
,,,,,419,,,West 2nd Street,,,,restaurant,,,,,,,,,,,,,,,,,,,,,,,,,,30.2654151,,-97.748667,,Leaf,,,,,,,,,,,,,,,,,,,www.leafsalad.com,,
,,,,,,,,,,,,bar,,,,,,,,,,,,,,,,,,,,,,,,,,30.2565437,,-97.7474697,,Ego's,,,,,,,,,,,,,,,,,,,,,
,,,,,,,,,,,,restaurant,,,,,,,,,,,,,,,,,,,,,,,,,,30.2266199,,-97.7622847,,El Flaco Cafe,,,,,,,,,,,,,,,,,,,,,
,,,,,,,,,,,,bar,,,,,,,,,,,,,,,,,,,,,,,,,,30.2268623,,-97.7615678,,Stompin' Grounds Lounge,,,,,,,,,,,,,,,,,,,,,
,,,,Bldg # C,399,78728-1275,,West Louis Henna Blvd,,,,restaurant,,,vietnamese,,,,,,,,,,,,,,,,,,,,,,,30.479011,,-97.6780761,,Pho Hoang,,,,,,,,,,,(512) 238-8008,,,,,,,,http://www.pho-hoang.com/,,
,,,,Suite : B-400,2601,78664,,South Interstate 35,,,,restaurant,,,indian,,,,,,,,,,,,,,,,,,,,,,,30.4833474,,-97.6728082,,Chola Indian Restaurant,,,,,,,,,,,(512) 244-2222,,,,,,,,http://www.cholaonline.com/,,
,,,,Suite 240,110,78681,,"N. IH35,",,,,restaurant,,,chinese,,,,,,,,,,,,,,,,,,,,,,,30.5083173,,-97.6876569,,Sichuan Garden,,,,,,,,,,,(512) 255-6952,,,,,,,,http://www.sichuangardentx.com/,,
,,,,,,,,,,,,bar,,,,,,,,,,,,,,,,,,,,,,,,,,30.2612105,,-97.7397373,,Chain Drive,,,,,,,,,,,,,,,,,,,,,
,,,,,,,,,,,,bar,,,,,,,,,,,,,,,,,,,,,,,,,,30.2643747,,-97.7413623,,Max's Wine Dive,,,,,,,,,,,,,,,,,,,,,
,,,,,,,,,,,,restaurant,,,,,,,,,,,,,,,,,,,,,,,,,,30.2641473,,-97.7414463,,Pirana Killer Sushi,,,,,,,,,,,,,,,,,,,,,
,,,,,,,,,,,,restaurant,,,,,,,,,,,,,,,,,,,,,,,,,,30.2641642,,-97.7405978,,Fogo De Chao,,,,,,,,,,,,,,,,,,,,,
,,,,,,,,,,,,bar,,,,,,,,,,,,,,,,,,,,,,,,,,30.2632742,,-97.7409562,,Submerged,,,,,,,,,,,,,,,,,,,,,
,,,,,,,,,,,,restaurant,,,,,,,,,,,,,,,,,,,,,,,,,,30.2636152,,-97.741057,,Fleming's Steakhouse,,,,,,,,,,,,,,,,,,,,,
,,,,,,,,,,,,restaurant,,,,,,,,,,,,,,,,,,,,,,,,,,30.2634701,,-97.7417011,,Mongolian Grille,,,,,,,,,,,,,,,,,,,,,
,,,,,,,,,,,,restaurant,,,,,,,,,,,,,,,,,,,,,,,,,,30.2641304,,-97.7426868,,Cedar Door,,,,,,,,,,,,,,,,,,,,,
,,,,,,,,,,,,restaurant,,,,,,,,,,,,,,,,,,,,,,,,,,30.2767346,,-97.750411,,House Park Bar-B-Que,,,,,,,,,,,,,,,,,,,,,
,,,,,,,,,,,,restaurant,,,,,,,,,,,,,,,,,,,,,,,,,,30.2763032,,-97.7486205,,Austin Pizza,,,,,,,,,,,,,,,,,,,,,
,,,,,,,,,,,,restaurant,,,,,,,,,,,,,,,,,,,,,,,,,,30.2706093,,-97.7495646,,Aquarelle Restaurant Français,,,,,,,,,,,,,,,,,,,,,
,,,,,,,,,,,,restaurant,,,,,,,,,,,,,,,,,,,,,,,,,,30.2699904,,-97.7510238,,Frank & Angie's Pizzeria,,,,,,,,,,,,,,,,,,,,,
,,,,,,,,,,,,restaurant,,,,,,,,,,,,,,,,,,,,,,,,,,30.2697527,,-97.7509303,,Lucy’s Retired Surfer Bar,,,,,,,,,,,,,,,,,,,,,
,,,,,,,,,,,,restaurant,,,,,,,,,,,,,,,,,,,,,,,,,,30.2694073,,-97.7436129,,Perry's Steakhouse,,,,,,,,,,,,,,,,,,,,,
,,,,,,,,,,,,restaurant,,,italian,,,,,,,,,,,,,,,,,,,,,,,30.271294,,-97.7418546,,Quattro Gatti Ristorante,,,Marakesh Bar & Grill,Mo-Th 11:00-22:00;Fr 11:00-23:00;Sa 13:00-23:00,,,,,,,512-476-3131,,,,,,,,http://www.quattrogattiaustin.com/,,
,,,,,701,78701,,Crongress Avenue,,,,restaurant,,,steak_house,,,,,,,,,,,,,,,,,,,,,,,30.2690633,,-97.7421993,,Roaring Fork,,,,,,,,,,,,,,,,,,,,yes,
,,,,,,,,,,,,bar,,,,,,,,,,,,,,,,,,,,,,,,,,30.2668736,,-97.7434943,,Sky Lounge,,,,,,,,,,,,,,,,,,,,,
,,,,,,,,,,,,bar,,,,,,,,,,,,,,,,,,,,,,,,,,30.2657263,,-97.7440439,,Cork & Co.,,,,,,,,,,,,,,,,,,,,,
,,,,,,,,,,,,restaurant,,,,,,,,,,,,,,,,,,,,,,,,,,30.2649307,,-97.7437197,,Copa Bar & Grill,,,,,,,,,,,,,,,,,,,,,
,,,,,,,,,,,,bar,,,,,,,,,,,,,,,,,,,,,,,,,,30.347507,,-97.7354817,,Dallas Nightclub,,,,,,,,,,,,,,,,,,,,,
,,,,,,,,,,,,restaurant,,,american,,,,,,,,,,,,,,,,,,,,,,,30.3567746,,-97.7312443,,Barletts,,,,,,,,,,,,,,,,,,,,,
,,,,,,,,,,,,restaurant,,,,,,,,,,,,,,,,,,,,,,,,,,30.3517455,,-97.7224631,,La Casita,,,,,,,,,,,,,,,,,,,,,
,,,,,,,,,,,,restaurant,,,,,,,,,,,,,,,,,,,,,,,,,,30.3402742,,-97.716974,,Carnes n Pollos,,,,,,,,,,,,,,,,,,,,,
,,,,,,,,,,,,bar,,,,,,,,,,,,,,,,,,,,,,,,,,30.3337186,,-97.721924,,Yellow Rose,,,,,,,,,,,,,,,,,,,,,
,,,,,,,,,,,,restaurant,,,,,,,,,,,,,,,,,,,,,,,,,,30.3323742,,-97.722685,,Threadgill's,,,,,,,,,,,,,,,,,,,,,
,,,,,,,,,,,,restaurant,,,,,,,,,,,,,,,,,,,,,,,,,,30.3133675,,-97.7383672,,Chili's,,,,,,,,,,,,,,,,,,,,yes,
,,,,,,,,,,,,restaurant,,,,,,,,,,,,,,,,,,,,,,,,,,30.3033701,,-97.7446209,,La Madeleine,,,,,,,,,,,,,,,,,,,,,
,,,,,,,,,,,,restaurant,,,,,,,,,,,,,,,,,,,,,,,,,,30.3097277,,-97.7152858,,Tyson's Tacos,,,,,,,,,,,,,,,,,,,,,
,,,,,4917,,,Airport Boulevard,,,,restaurant,,,sushi,,,,,,,,,,,,,,,,,,,,,,,30.3107651,,-97.7151814,,Komé,,,,"Mon-Thu 11AM-2PM,5PM-10PM; Fri 11AM-2PM,5PM-11PM; Sat 11AM-3PM,5PM-11PM; Sun 11AM-3PM,5:30PM-10PM",,,,,,,+1-512-712-5700,,,,,,no,,http://www.kome-austin.com/,,
,,,,,,,,,,,,restaurant,,,,,,,,,,,,,,,,,,,,,,,,,,30.3168803,,-97.7140493,,Burger Tex,,,,,,,,,,,,,,,,,,,,,
,,,,,,,,,,,,restaurant,,,,,,,,,,,,,,,,,,,,,,,,,,30.3550729,,-97.7029139,,Tacos Y Mas,,,,,,,,,,,,,,,,,,,,,
,,,,,,,,,,,,restaurant,,,,,,,,,,,,,,,,,,,,,,,,,,30.3584687,,-97.6992611,,Mandarin House,,,,,,,,,,,,,,,,,,,,,
,,,,,,,,,,,,restaurant,,,,,,,,,,,,,,,,,,,,,,,,,,30.3641562,,-97.6960244,,El Tacolote,,,,,,,,,,,,,,,,,,,,,
,,,,,,,,,,,,restaurant,,,,,,,,,,,,,,,,,,,,,,,,,,30.3674231,,-97.6951921,,Golden Corral,,,,,,,,,,,,,,,,,,,,yes,
,,,,,,,,,,,,restaurant,,,,,,,,,,,,,,,,,,,,,,,,,,30.3701649,,-97.6936258,,T&S Chinese,,,,,,,,,,,,,,,,,,,,,
,,,,,,,,,,,,bar,,,,,,,,,,,,,,,,,,,,,,,,,,30.3737944,,-97.6905616,,El Tajuana Bar,,,,,,,,,,,,,,,,,,,,,
,,,,,,,,,,,,restaurant,,,,,,,,,,,,,,,,,,,,,,,,,,30.3751992,,-97.6906032,,Chuy's,,,,,,,,,,,,,,,,,,,,,
,,,,,,,,,,,,restaurant,,,,,,,,,,,,,,,,,,,,,,,,,,30.4118353,,-97.6749178,,Red Robin,,,,,,,,,,,,,,,,,,,,,
,,,,,,,,,,,,restaurant,,,,,,,,,,,,,,,,,,,,,,,,,,30.4172896,,-97.6718576,,Chili's,,,,,,,,,,,,,,,,,,,,,
,,,,,,,,,,,,restaurant,,,,,,,,,,,,,,,,,,,,,,,,,,30.4168087,,-97.6718721,,Johnny Carino's Italian,,,,,,,,,,,,,,,,,,,,,
,,,,,,,,,,,,restaurant,,,,,,,,,,,,,,,,,,,,,,,,,,30.4133557,,-97.6919876,,Ryan's,,,,,,,,,,,,,,,,,,,,,
,,,,,,,,,,,,restaurant,,,,,,,,,,,,,,,,,,,,,,,,,,30.4162809,,-97.6978215,,Pok-E-Joe's BBQ,,,,,,,,,,,,,,,,,,,,,
,,,,,,,,,,,,bar,,,,,,,,,,,,,,,,,,,,,,,,,,30.4462553,,-97.8068296,,Anderson Mill Tavern,,,,,,,,,,,,,,,,,,,,,
,,,,,,,,,,,,restaurant,,,,,,,,,,,,,,,,,,,,,,,,,,30.4779627,,-97.8004142,,Mama Fu's,,,,,,,,,,,,,,,,,,,,,
,,,,,,,,,,,,restaurant,,,,,,,,,,,,,,,,,,,,,,,,,,30.4473524,,-97.787084,,Kerby Lane Cafe,,,,,,,,,,,,,,,,,,,,,
,,,,,,,,,,,,restaurant,,,,,,,,,,,,,,,,,,,,,,,,,,30.4459454,,-97.7858306,,Double Dave's Pizza,,,,,,,,,,,,,,,,,,,,,
,,Austin,,Suite B,2002,78705,TX,Guadalupe Street,,,,restaurant,,,sandwich,,,,,,,,,,,,,,,,,,,,,,,30.2828809,,-97.7422633,,Bite Mi,,,,,,,,,,,(512) 501-6738,,,,,,,,bitemiaustin.com,,
,,,,,2514,78705,,Guadalupe Street,,,,restaurant,,,thai,,,,,,,,,,,,,,,,,,,,,,,30.2896647,,-97.7415713,,Madam Mam's Noodles and More,,,,,,,,,,,(512) 472-8306,,,,,,,,madammam.com,,
,,,,Suite # B,1931,78741,,E Oltorf St,,,,restaurant,,,vietnamese,,,,,,,,,,,,,,,,,,,,,,,30.2307085,,-97.7348261,,Hai Ky,,,,,,,,,,,(512) 693-2464,,,,,,,,haiky.zzl.org,,
,,Austin,,,12636,78759,,Research Blvd,,,,restaurant,,,mediterranean,,,,,,,,,,,,,,,,,,,,,,,30.4307673,,-97.7638954,,Dimassi's Mediterranean Buffet,,,,,,,,,,,(512) 996-8900,,,,,,,,dimassisbuffet.com,,
,,,,,1614,78702,,East 7th Street,,,,restaurant,,,colombian,,,,,,,,,,,,,,,,,,,,,,,30.2637439,,-97.7248744,,Casa Colombia,,,,,,,,,,,(512) 495-9425,,,,,,,,casa-colombia.com,,
,,,,,642,78702,,Calles Street,,,,restaurant,,,el_salvadorian,,,,,,,,,,,,,,,,,,,,,,,30.2600696,,-97.7121017,,El Zunzal,,,,,,,,,,,(512) 474-7749,,,,,,,,,,
,,,,,,,,,,,,bar,,,,,,gay bar and dance club,,,,,,,,,,yes,,,,,,,,,,30.2666443,,-97.74564,,Rain,,,,,,,,,,,(512) 494-1150,,,,,,,gay,,,
,,,,,,,,,,,,bar,,,,,,gay bar and nightclub,,,,,,,,,,yes,,,,,,,,,,30.2665655,,-97.7453718,,Oilcan Harry's,,,,,,,,,,,,,,,,,,gay,,,
,,,,,,,,,,,,bar,,,,,,,,,,,,,,,,yes,,,,,,,,,,30.2704018,,-97.7443955,,Iron Bear,,,,,,,,,,,,,,,,,,gay,,,
,,,,,,,,,,,,bar,,,,,,,,,,,,,,,,,,,,,,,,,,30.2285706,,-97.7824989,,Town n Country,,,,,,,,,,,,,,,,,,gay,,,
,,,,,15200,78660,,FM 1825,,,,restaurant,,,peruvian,,,,,,,,,,,,,,,,,,,,,,,30.4445996,,-97.6646566,,Machu Picchu,,,,,,,,,,,,,,,,,,,,,
,,,,,13450,78750,,Research Blvd,,,,restaurant,,,greek,,,,,,,,,,,,,,,,,,,,,,,30.4472402,,-97.7909658,,Tino's Greek Cafe,,,,,,,,,,,(512) 336-5999,,,,,,,,tinosgreekcafe.com,,
,,,,Suite  # 230,13450,78750,,Research Blvd,,,,restaurant,,,italian,,,,,,,,,,,,,,,,,,,,,,,30.4462736,,-97.7910141,,Reale's Italian Cafe,,,,,,,,,,,(512) 335-5115,,,,,,,,realespizza.com,,
,,,,,13376,78750,,Research Blvd,,,,restaurant,,,american,,,,,,,,,,,,,,,,,,,,,,,30.4449463,,-97.7889917,,Hoover's Cooking,,,,,,,,,,,(512) 335-0300,,,,,,,,hooverscooking.com,,
,,,,Suite #127,8650,,,Spicewood Springs Rd,,,,restaurant,,,chinese,,,,,,,,,,,,,,,,,,,,,,,30.4322486,,-97.7709847,,Chen's Noodle House,,,,,,,,,,,(512) 336-8888,,,,,,,,,,
,,,,Suite # 100,9025,78758,,Research Boulevard,,,,restaurant,,,indian,,,,,,,,,,,,,,,,,,,,,,,30.3729305,,-97.7241083,,Madras Pavilion,,,,,,,,,,,512) 719-5575,,,,,,,,madraspavilion.us,,
,,,,Suite # 150,9041,78758-7008,,Research Boulevard,,,,restaurant,,,thai,,,,,,,,,,,,,,,,,,,,,,,30.3736062,,-97.7255031,,Thai House,,,,,,,,,,,(512) 832-9722,,,,,,,,http://http://www.thaihouseaustin.com,,
,,,,,9033,78758-7013,,Research Boulevard,,,,restaurant,,,japanese,,,,,,,,,,,,,,,,,,,,,,,30.3734303,,-97.7247091,,Mikado Ryotei,,,,,,,,,,,(512) 833-8188,,,,,,,,mikadoryotei.com,,
,,,,,2218,78704,,College Avenue,,,,restaurant,,,chicken,,,,,,,,,,,,,,,,,,,,,,,30.240435,,-97.7532506,,Lucy's Fried Chicken,,,,,,,,,,,,,,,,,,,,,
,,,,,,,,,,,,bar,,,,,,,,,,,,,,,,,,,,,,,,,,30.3179356,,-97.7222217,,The Tigress,,,,,,,,,,,,,,,,,,,,,
,,,,,,,,,,,,restaurant,,,,,,,,,,,,,,,,,,,,,,,,,,30.3174559,,-97.7221123,,Phara's,,,,,,,,,,,,,,,,,,,,,
,,,,,,,,,,,,restaurant,,,sushi,,,,,,,,,,,,,,,,,,,,,,,30.3947579,,-97.7277708,,Sushi Zushi,,,,,,,,,,,,,,,,,,,,,
,,,,,,,,,,,,bar,,,,,,,,,,,,,,,,,,,,,,,,,,30.3690209,,-97.7271659,,Buddy's Place,,,,,,,,,,,,,,,,,,,,,
,,,,,,,,,,,,restaurant,,,,,,,,,,,,,,,,,,,,,,,,,,30.4306811,,-97.7643416,,Mongolian Grille,,,,,,,,,,,,,,,,,,,,,
,,,,,2032,78704,,South Lamar Boulevard,,,,restaurant,,,ice_cream,,,,,,,,,,,,,,,,,,,,,,,30.249266,,-97.7688081,,Lick Ice Creams,,,,,,,,,,,(512) 363-5622,,,,,,,,,,
,,,,,504,78704,,West Oltorf Street,,,,restaurant,,,Moroccan,,,,,,,,,,,,,,,,,,,,,,,30.2475073,,-97.7693418,,The Flying Carpet: Moroccan Food,,,,,,,,,,,,,,,,,,,,,
,,,,,2700,78757,,West Anderson Lane,,,,restaurant,,,asian,,,,,,,,,,,,,,,,,,,,,,,30.358607,,-97.7346045,,ChenZ (Hotpot and Noodles),,,,,,,,,,,,,,,,,,,,,
,,,,,,,,,,,,school,,,,,,,,,,,,,,,,,,,,,,,,,,30.495589,,-97.7389169,,Great Oaks Elementary,,,,,,,,,,,,,,,,,,,,,
,,,,the Village shopping center,2700,78757,,W Anderson Ln,,,,restaurant,,,american,,,,,,,,,,,,,,,,,,,,,,,30.3586499,,-97.7350186,,Cover 3,,,,,,,,,,,,,,,,,,,www.cover-3.com,,
,,,,the Village Shopping Center,2700,78757,,W Anderson Ln,,,,restaurant,,,mexican,,,,,,,,,,,,,,,,,,,,,,,30.3585851,,-97.7349059,,Chipotle Mexican Grill,,,,,,,,,,,,,,,,,,,,,
,,,,,2438,,,W Anderson Ln,,,,restaurant,,512-420-0001,vietnamese,,,BTC payment via Menufy.,,,,,,,,,,,,,,,,,,,,30.3578376,,-97.7329828,,Pho Thaison Vietnamese Cuisine,,,,,,,,yes,,,,,,,,,,,http://phothaisonaustin.com/,,
,,,,,12408,78758,,North Mopac Expressway,,,,bar,,,,,,,,,,,,,,,,,,,,,,,,,,30.4193127,,-97.7056784,,Weirdo's,,,,,,,,,,,,,,,,,,,weirdosaustin.com,,
,,,,,,,,,,,,restaurant,,,american,,,,,,,,,,,,,,,,,,,,,,,30.4143996,,-97.6893674,,Original Pancake house,,,,,,,,,,,,,,,,,,,,,
,,,,,,,,,,,,restaurant,,,,,,,,,,,,,,,,,,,,,,,,,,30.4219911,,-97.7023364,,Thundercloud subs,,,,,,,,,,,,,,,,,,,,,
,,,,,,,,,,,,restaurant,,,,,,,,,,,,,,,,,,,,,,,,,,30.4221253,,-97.7018858,,Thomas Super Buffet,,,,,,,,,,,,,,,,,,,,,
,,,,,,,,,,,,restaurant,,,mexican,,,,,,,,,,,,,,,,,,,,,,,30.4461485,,-97.6854136,,La Brisa,,,,,,,,,,,,,,,,,,,,,
,,,,,,,,,,,,restaurant,,,chinese,,,,,,,,,,,,,,,,,,,,,,,30.4463104,,-97.6856175,,Four Seasons,,,,,,,,,,,,,,,,,,,,,
,,,,,,,,,,,,school,,,,,,,,,,,,,,,,,,,,,,,,,,30.4035652,,-97.7046332,,Austin Community College,,,,,,,,,,,,,,,,,,,,,
,,,,,,,,,,,,restaurant,,,,,,,,,,,,,,,,,,,,,,,,,,30.4237171,,-97.7020476,,Opal Divine's Marina,,,,,,,,,,,,,,,,,,,,,
,,,,,,,,,,,,restaurant,,,pizza,,,,,,,,,,,,,,,,,,,,,,,30.4075433,,-97.697678,,Pizza Paradise,,,,,,,,,,,,,,,,,,,,,
,,,,,,,,,,,,restaurant,,,,,,,,,,,,,,,,,,,,,,,,,,30.4030394,,-97.7237293,,The Park,,,,,,,,,,,,,,,,,,,,yes,
,,,,,,,,,,,,restaurant,,,italian,,,,,,,,,,,,,,,,,,,,,,,30.4023299,,-97.7260086,,North,,,,,,,,,,,,,,,,,,,,,
,,,,,,,,,,,,restaurant,,,,,,,,,,,,,,,,,,,,,,,,,,30.4003772,,-97.7270333,,California Pizza Kitchen,,,,,,,,,,,,,,,,,,,,,
,,,,,,,,,,,,restaurant,,,sandwich,,,,,,,,,,,,,,,,,,,,,,,30.4562471,,-97.6611781,,Thundercloud Sub,,,,,,,,,,,,,,,,,,,,,
,,,,,,,,,,,,restaurant,,,asian,,,,,,,,,,,,,,,,,,,,,,,30.4181803,,-97.6703209,,Masala Wok,,,,,,,,,,,,,,,,,,,,,
,,,,,,,,,,,,restaurant,,,,,,,,,,,,,,,,,,,,,,,,,,30.4178741,,-97.6703627,,Freebirds,,,,,,,,,,,,,,,,,,,,,
,,,,,,,,,,,,bar,,,,,,,,,,,,,,,,,,,,,,,,,,30.2608187,,-97.7382003,,Bar 96,,,,,,,,,,,,,,,,,,,,,
,,,,,,,,,,,,restaurant,,,mexican,,,,,,,,,,,,,,,,,,,,,,,30.2655291,,-97.7454598,,Cantina Laredo,,,,,,,,,,,,,,,,,,,,,
,,,,,,,,,,,,bar,,,,,,,,,,,,,,,,,,,,,,,,,,30.2699463,,-97.7502351,,Dogwood,,,,,,,,,,,,,,,,,,,,,
,,,,,,,,,,,,bar,,,,,,,,,,,,,,,,,,,,,,,,,,30.2702132,,-97.7499377,,The Brew Exchange,,,,,,,,,,,,,,,,,,,,,
,,,,,,,,,,,,bar,,,,,,,,,,,,,,,,,,,,,,,,,,30.2703034,,-97.7502191,,J Blacks,,,,,,,,,,,,,,,,,,,,,
,,,,,,,,,,,,bar,,,,,,,,,,,,,,,,,,,,,,,,,,30.2697777,,-97.7493957,,Key Bar,,,,,,,,,,,,,,,,,,,,,
,,,,,,,,,,,,bar,,,,,,,,,,,,,,,,,,,,,,,,,,30.2702734,,-97.750077,,The Ranch,,,,,,,,,,,,,,,,,,,,,
,,,,,,,,,,,,restaurant,,,chicken,,,,,,,,,,,,,,,,,,,,,,,30.4387946,,-97.6712342,,Inka Chicken,,,,,,,,,,,,,,,,,,,,,
,,,,,,,,,,,,restaurant,,,,,,,,,,,,,,,,,,,,,,,,,,30.4351645,,-97.674503,,,,,,,,,,,,,,,,,,,,,,,
,,,,,,,,,,,,restaurant,,,,,,,,,,,,,,,,,,,,,,,,,,30.4392675,,-97.6977361,,McDonalds,,,,,,,,,,,,,,,,,,,,,
,,,,,,,,,,,,restaurant,,,ice_cream,,,,,,,,,,,,,,,,,,,,,,,30.4173747,,-97.7042668,,,,,,,,,,,,,,,,,,,,,,,
,,,,,,,,,,,,restaurant,,,mexican,,,,,,,,,,,,,,,,,,,,,,,30.417074,,-97.7035265,,,,,,,,,,,,,,,,,,,,,,,
,,,,,,,,,,,,bar,,,,,,,,,,,,,,,,,,,,,,,,,,30.4355021,,-97.6739345,,,,,,,,,,,,,,,,,,,,,,,
,,,,,,,,,,,,bar,,,,,,,,,,,,,,,,,,,,,,,,,,30.4353358,,-97.6741598,,,,,,,,,,,,,,,,,,,,,,,
,,,,,,,,,,,,restaurant,,,mexican,,,,,,,,,,,,,,,,,,,,,,,30.462725,,-97.8156287,,Taqueria Guadalajara,,,,,,,,,,,,,,,,,,,,,
,,,,,,,,,,,,restaurant,,,,,,,,,,,,,,,,,,,,,,,,,,30.4569343,,-97.8252325,,Johnny Carino's Italian,,,,,,,,,,,,,,,,,,,,,
,,,,,429,78660,,Grand Avenue Parkway,,,,school,,,,,,,,,,,,,,,,,,,,,,,,,,30.4649031,,-97.643599,,Windermere Primary School,,,,,,,,,,,,,,,,,,,,,
,,,,,,,,,,,,school,,,,,,,,,,,,,,,,,,,,,,,,,,30.2317794,,-97.8834154,,Austin Community College Book Store,,,,,,,,,,,,,,,,,,,,,
,,,,,,,,,,,,hospital,,,,,,,,,,,,,,,,,,,,,,,,,,30.2269576,,-97.8916002,,Seaton Southwest Hospital,,,,,,,,,,,,,,,,,,,,,
,,Austin,,,5900,78749,,West Slaughter Lane,,,,restaurant,,,mexican,,,,,,,,,,,,,,,,,,,,,,,30.201596,,-97.879981,,Santa Rita Cantina,,,,,,,yes,,,,,,,,no,,,,http://www.santaritacantina.com/,,
,,,,,,,,,,,,school,,,,,,,,,,,,,,,,,,,,,,,,,,30.5043208,,-97.7518491,,Patsy Sommer Elementary School,,,,,,,,,,,,,,,,,,,,,
,,,,,,,,,,,,restaurant,,,sandwich,,,,,,,,,,,,,,,,,,,,,,,30.4582826,,-97.8222758,,Noble Pig,,,,,,,,,,,,,,,,,,,http://www.noblepigaustin.com,,
,,,,,,,,,,,,restaurant,,,regional,,,,,,,,,,,,,,,,,,,,,,,30.279883,,-97.7216818,,Connie's Beergarden,,,,,,,,,,,,,,,,,,,,,
,,,,,,,,,,,,restaurant,,,mexican,,,,,,yes,restaurant,,,,,,,,,,,,,,,,30.2626488,,-97.7275384,,Nuevo Leon,,,,,,,,,,,,,,,,,,,,,
,,,,,,,,,,,,restaurant,,,regional,,,,,,,,,,,,,,,,,,,,,,,30.2648358,,-97.7313123,,East Side Showroom,,,,,,,,,,,,,,,,,,,eastsideshowroom.com,,
,,,,,,,,,,,,bar,,,,,,,,,,,,,,,,,,,,,,,,,,30.264933,,-97.7316207,,Shangri La,,,,,,,,,,,,,,,,,,,,,
,,,,,,,,,,,,restaurant,,,Argentinian,,,,,,,,,,,,,,,,,,,,,,,30.2641778,,-97.7302877,,Buenos Aires Cafe,,,,,,,,,,,,,,,,,,,,,
,,,,,,,,,,,,restaurant,,,indian,,,,,,,,,,,,,,,,,,,,,,,30.3599589,,-97.7365175,,Star of India,,,,,,,no,,,,,,,,no,,,,,,
,,Austin,,,2438,78757,,West Anderson Lane,A6,,,restaurant,,,burger,,,,,,,,,,,,,,,,,,,,,,,30.357576,,-97.733057,,Hopdoddy Burger Bar,,,,,,,yes,,,,,,,,no,,yes,,,yes,
,,,,,,,,,,,,restaurant,,,,,,,,,,,,,,,,,,,,,,,,,,30.2539796,,-97.8073269,,,,,,,,,,,,,,,,,,,,,,,
,,Austin,,,2451,78746,,Capital of Texas Highway,,,,restaurant,,,barbecue,,,,,,,,,,,,,,,,,,,,,,,30.2635619,,-97.8155379,,Rudy's Texas Bar-B-Q,,,,,,,,,,,,,,,,,,,,,
,,,,,,,,,,,,restaurant,,,mexican,,,,,,,,,,,,,,,,,,,,,,,30.306775,,-97.74429,,Santa Rita,,,,,,,,,,,,,,,,,,,,,
,,Austin,,,9600 ,78749,,Escarpment Blvd,800,,,restaurant,,,american,,,,,,,,,,,,,,,,,,,,,,,30.203463,,-97.878863,,Waterloo Ice House,,,,,,,no,,,,512-301-1007,,,,no,,yes,,http://www.waterlooicehouse.com/,,
,,,,,,,,,,,,restaurant,,,american,,,,,,,,,,,,,,,,,,,,,,,30.3041725,,-97.7267211,,Hyde Park Bar and Grill,,,,,,,,,,,,,,,,,,,,,
,,,,,,,,,,,,school,,,,,,,,,,,,,,,,,,,,,,,,,,30.3287395,,-97.7204345,,,,,,,,,,,,,,,,,,,,,,,
,,,,,,,,,,,,restaurant,,,burger,,,,,,,,,,,,,,,,,,,,,,,30.315053,,-97.734436,,Hopdoddy Burger Bar,,,,,,,,,,,,,,,,,,,,,
,,,,,1901,,,East Ben White Boulevard,,,,school,,,,,,,,,,,,,,,,,,,,,,,"9,10,11,12",,"2,3",30.2155487,,-97.7468045,,American Youthworks Charter School,,,,,,,,,,,,,,,,,,,,,
,,,,,,,,,,,,school,,,,,,,,,,,,,,,,,,,,,,,"6,7,8,9,10,11,12",,"2,3",30.3188334,,-97.6900755,,Austin Achieve Public School (charter),,,,,,,,,,,,,,,,,,,,,
,,,,,,,,,,,,restaurant,,,regional,,,,,,,,,,,,,,,,,,,,,,,30.3891259,,-97.7529303,,Z Tejas,,,,,,,,,,,,,,,,,,,,,
,,,,,,,,,,,,hospital,,,,,,,,,,,,,,,yes,,,,,,,,,,,30.2956596,,-97.8265122,,The Hospital at Westlake Medical Center,,,,,,,,,,,,,,,,,,,,,
,,Austin,,,100,,,East North Loop Boulevard,,,,bar,,,,,,,,,,,,,,,,,,,,,,,,,,30.3178517,,-97.7219593,,Workhorse Bar,,,,,,,,,,,+1 512 323 5700,,,,,,,,www.workhorsebar.com,,
,,Austin,,,,,,North Loop Boulevard,,,,bar,,,,,,,,,,,,,,,,,,,,,,,,,,30.3172224,,-97.7206057,,Drink Well,,,,,,,,,,,,,,,,,,,,,
,,,,,,,,4201 South Congress Avenue #4,,,,restaurant,,,mexican,,,,,,,,,,,,,,,,,,,,,,,30.2204769,,-97.7649008,,Taqueria Chapala,,,,,,,,,,,,,,,,,,,,,
,,,,,,,,,,,,restaurant,,,american,,,,,,,,,,,,,,,,,,,,,,,30.267202,,-97.740299,,parkside,,,,,,,,,,,,,,,,,,,,,
,,Austin,,,300,78701,,East 4th Street,,,,restaurant,,,,,,,,,,,,,,,,,,,,,,,,,,30.265402,,-97.740157,,Champions,,,,,,,yes,,,,5124730405,,,,,,,,championsaustin.com,,
,,,,,207,,,San Jacinto Boulevard,,,,restaurant,,(512)482-8244,thai,,,BTC payment via Menufy.,,,,,,,,,,,,,,,,,,,,30.264266,,-97.741411,,Mai Thai,,,,,,,,yes,,,,,,,,,,,http://maithaionline.com/,,
,,,,,,,,,,,,restaurant,,,regional,,,,,,,,,,,,,,,,,,,,,,,30.2661445,,-97.7402089,,Russian House,,,,,,,,,,,,,,,,,,,,,
,,Austin,,,3201,78746,,Bee Cave Road,,,,restaurant,,,sandwich,,,,,,,,,,,,,,,,,,,,,,,30.2733309,,-97.8007345,,Thundercloud Subs,,,,,,,,,,,512 328 2114,,,,,,,,,,
,,Austin,,,3736,78746,,Bee Cave Road,,,,restaurant,,,sandwich,,,,,,,,,,,,,,,,,,,,,,,30.280724,,-97.8069902,,Texas Honey Ham,,,,,,,,,,,512 330 9888,,,,,,,,http://www.texashoneyham.com,,
,,,,,,,,,,,,restaurant,,,,,,,,,,,,,,,,,,,,,,,,,,30.3571148,,-97.7857151,,County Line on the Lake,,,,,,,,,,,,,,,,,,,http://sienaaustin.com/,,
,,,,,,,,,,,,restaurant,,,,,,,,,,,,,,,,,,,,,,,,,,30.3385048,,-97.75572,,McDonalds,,,,,,,,,,,,,,,,,,,,,
,,,,,3637,,,Far West Boulevard,,,,restaurant,,(512) 338-9414,sandwich,,,BTC payment via Menufy.,,,,,,,,,,,,,,,,,,,,30.3546209,,-97.7563751,,Quizno's Far West,,,,,,,,yes,,,,,,,,,,,http://quiznosfarwest.com/,,
,,Austin,,,8012,78759,,Mesa Drive,,,,restaurant,,,pizza,,,,,,,,,,,,,,,,,,,,,,,30.370621,,-97.7585108,,Mangia Pizza,,,,,,,,,,,512-349-2126,,,,,,,,http://www.mangiapizza.com/,,
,,,,,,,,,,,,restaurant,,,american,,,,,,,,,,,,,,,,,,,,,,,30.3928794,,-97.7493748,,Zoë's Kitchen,,,,,,,,,,,,,,,,,,,,,
,,,,,,,,,,,,restaurant,,,mexican,,,,,,,,,,,,,,,,,,,,,,,30.2647951,,-97.7415886,,Uncle Julio's,,,,,,,,,,,,,,,,,,,,,
,,,,,,,,,,,,restaurant,,,,,,,,,,,,,,,,,,,,,,,,,,30.1676447,,-97.7899105,,Bill Miller Bar-BQ,,,,,,,,,,,,,,,,,,,,,
,,Austin,US,,4101,78727,,West Parmer Lane,,,,restaurant,,,sushi,,,,,,,,,,,,,,,,,,,,,,,30.4255201,,-97.7169501,,Tomodachi Sushi,,,,"Mo-Fr 11:30-14:30,17:30-22:00;Sa 12:00-22:00",,,,,,,+1-512-821-9472,,,,,,,,http://tomosushiaustin.com/,,
,,,,,,,,,,,,restaurant,,,,,,,,,,,,,,,,,,,,,,,,,,30.2322449,,-97.8165095,,Long Horn Steak House,,,,,,,,,,,,,,,,,,,,,
,,,,,,,,,,,,restaurant,,,,,,,,,,,,,,,,,,,,,,,,,,30.2316562,,-97.8168528,,BJ's Restaurant,,,,,,,,,,,,,,,,,,,,,
,,,,,,,,,,,,restaurant,,,,,,,,,,,,,,,,,,,,,,,,,,30.2261499,,-97.8195833,,Fire Bowl Cafe,,,,,,,,,,,,,,,,,,,,,
,,,,,,,,,,,,restaurant,,,mexican,,,,,,,,,,,,,,,,,,,,,,,30.411828,,-97.9271922,,Don Marios,,,,,,,,,,,,,,,,,,,,,
,,,,,,,,,,,,restaurant,,,mexican,,,,,,,,,,,,,,,,,,,,,,,30.4119483,,-97.9263741,,Los Pinos,,,,,,,,,,,,,,,,,,,,,
,,,,,,,,,,,,bar,,,,,,,,,,,,,,,,,,,,,,,,,,30.4119737,,-97.927152,,Frogs,,,,,,,,,,,,,,,,,,,,,
,,,,,,,,,,,,restaurant,,,mexican,,,,,,,,,,,,,,,,,,,,,,,30.2700107,,-97.7418634,,Chipotle Mexican Grill,,,,Mo-Fr 11:00-18:00,,,,,,,512.391.1668,,,,,,,,,,
,,,,,704,,,Congress Avenue,,,,restaurant,,512-480-8440,pizza,,,BTC payment via Menufy.,,,,,,,,,,,,,,,,,,,,30.2692949,,-97.7425595,,Cozzoli's Pizza,,,,,,,,yes,,,,,,,,,,,http://cozzolisaustin.com/,,
,,Austin,,,2310,78722,,Manor Road,,,,bar,,,,,,,,,,,,,,,,,,,,,,,,,,30.284794,,-97.7175883,,Haymaker,,,,,,,,,,,512-707-2744,,,,,,,,http://www.haymakeraustin.com/,,
,,,,,,,,,,,,restaurant,,,,,,,,,,,,,,,,,,,,,,,,,,30.4589873,,-97.7906478,,China Cafe,,,,,,,,,,,,,,,,,,,http://www.chinacafelakecreek.com/,,
,,,,,,,,,,,,restaurant,,,,,,,,,,,,,,,,,,,,,,,,,,30.3659072,,-97.7198348,,Sea Dragon,,,,,,,,,,,,,,,,,,,,,
,,,,,,,,,,,,restaurant,,,mexican,,,,,,,,,,,,,,,,,,,,,,,30.3723167,,-97.7271869,,Chili's,,,,,,,,,,,,,,,,,,,,,
,,,,,,,,,,,,restaurant,,,,,,,,,,,,,,,,,,,,,,,,,,30.2351785,,-97.8210362,,Applebee's,,,,,,,,,,,,,,,,,,,,,
,,,,,,,,,,,,restaurant,,,mexican,,,,,,,,,,,,,,,,,,,,,,,30.2362004,,-97.8218194,,Serranos,,,,,,,,,,,,,,,,,,,,,
,,,,,,,,,,,,restaurant,,,,,,,,,,,,,,,,,,,,,,,,,,30.2292042,,-97.8210603,,Chipotle Mexican Grill,,,,,,,,,,,,,,,,,,,,,
,,,,,,,,,,,,restaurant,,,,,,,,,,,,,,,,,,,,,,,,,,30.4452627,,-97.744627,,Ajishin,,,,,,,,,,,,,,,,,,,,,
,,,,,,,,,,,,restaurant,,,mexican,,,,,,,,,,,,,,,,,,,,,,,30.444632,,-97.7442635,,Margaritas,,,,,,,,,,,,,,,,,,,,,
,,Austin,,,13000,78753,,N IH 35 Bldg. 6,,,,restaurant,,,chinese,,,,,,,,,,,,,,,,,,,,,,,30.4102678,,-97.6758278,,Ho Ho Chinese B.B.Q.,,,,,,,,,,,,,,,,,,,http://www.hohochinesebbq.com/,,
,,Austin,,,6816,78729,,McNeil Drive,,,,restaurant,,,american,,,,,,,,,,,,,,,,,,,,,,,30.4382624,,-97.7588431,,SONIC Drive-In,,,,,,,,,,,,,,,,,,,http://www.sonicdrivein.com/,,
,,Austin,,,75,78701,,Rainey Street,,,,restaurant,150,,mexican,,,,,,,,,,,,,,,,,,,,,,,30.2586145,,-97.7385885,,Art of Tacos,,,,,,,,yes,,,,,,,,,,,www.artoftacos.com,,
,,,,,,,,,,,,restaurant,,,mexican,,,,,,,,,,,,,,,,,,,,,,,30.3480396,,-97.7147153,,El Nuevo Mexico,,,,,,,,,,,,,,,,,,,,,
,,,,,,,,,,,,restaurant,,,,,,,,,,,,,,,,,,,,,,,,,,30.348118,,-97.7148774,,888 Restaurant,,,,,,,,,,,,,,,,,,,,,
,,Austin,,,12856,78750,,North Research Blvd,,,,restaurant,,,pizza,,,,,,,,,,,,,,,,,,,,,,,30.4340029,,-97.7722011,,Papa Murphy's,,,,11:00-20:00,,,,,,,(512) 335-0770,,,,,,,,,,
,,Austin,,,13429,78750,,N HWY 183,,,,restaurant,,,Asian_Fusion,,,,,,,,,,,,,,,,,,,,,,,30.4473688,,-97.7889237,,Pei Wei,,,,Monday 10:30 am – 9:00 pm Tuesday 10:30 am – 9:00 pm Wednesday 10:30 am – 9:00 pm Thursday 10:30 am – 9:00 pm Friday 10:30 am – 10:00 pm Saturday 10:30 am – 10:00 pm Sunday 10:30 am – 9:00 pm,,,,,,,(512) 996-0095,,,,,,,,,,
,,,,,,,,,,,,restaurant,,,,,,,,,,,,,,,,,,,,,,,,,,30.389633,,-97.7529925,,Eddie Z's,,,,,,,,,,,,,,,,,,,,,
,,,,,,,,,,,,bar,,,,,,,,,,,,,,,,,,,,,,,,,,30.3155063,,-97.734038,,Flying Saucer Pub,,,,,,,,,,,,,,,,,,,,,
,,,,,,,,,,,,restaurant,,,,,,,,,,,,,,,,,,,,,,,,,,30.3951748,,-97.7510323,,Newk's,,,,,,,,,,,,,,,,,,,http://newks.com/locations/austin/,,
,,,,,,,,,,,,bar,,,,,,,,,,,,,,,,,,,,,,,,,,30.3662779,,-97.7291769,,Common Interest,,,,,,,,,,,,,,,,,,,,,
,,,,,,,,,,,,restaurant,,,indian,,,,,,,,,,,,,,,,,,,,,,,30.3654581,,-97.7289338,,Sarovar,,,,,,,,,,,,,,,,,,,,,
,,,,,,,,,,,,restaurant,16,,Mexican_Korean,,,,,,,,,,,,,,,,,,,,,,,30.4284769,,-97.7603485,,Yummi's Tacos,,,,,,,,,,,,,,,,,,,,,
,,,,,,,,,,,,restaurant,,,,,,,,,,,,,,,,,,,,,,,,,,30.3246632,,-97.7402185,,Austin Diner,,,,,,,,,,,,,,,,,,,,,
,,,,,,,,,,,,restaurant,,,,,,,,,,,,,,,,,,,,,,,,,,30.227957,,-97.8207259,,Zoës Kitchen,,,,,,,,,,,,,,,,,,,,,
,,,,,,,,,,,,restaurant,,,,,,,,,,,,,,,,,,,,,,,,,,30.4695534,,-97.5953842,,Chili's,,,,,,,,,,,,,,,,,,,,,
,,,,,,,,,,,,restaurant,,,mexican,,,,,,,,,,,,,,,,,,,,,,,30.4696718,,-97.5958785,,Morelia,,,,,,,,,,,,,,,,,,,,,
,,,,,,,,,,,,restaurant,,,japanese,,,,,,,,,,,,,,,,,,,,,,,30.4691241,,-97.5960728,,Shogun,,,,,,,,,,,,,,,,,,,,,
,,,,,,,,,,,,hospital,,,,,,,,,,,,,,,,,,,,,,,,,,30.4704455,,-97.5949405,,St. David's Emergency Center,,,,,,,,,,,,,,,,,,,,,
,,Austin,,,2201,78741,,South Lakeshore Boulevard,,,,restaurant,,,pizza,,,,,,,,,,,,,,,,,,,,,,,30.2445156,,-97.7226469,,The Unconventional Oven,,,,We 16:00-22:00; Th-Su 14:00-22:00,,,,yes,yes,no,,,,,,,,,http://www.theunconventionaloven.com/,,
,,Austin,,,1417,,,South 1st Street,,,,restaurant,,,thai,,,,,,,,,,,,,,,,,,,,,,,30.250154,,-97.754683,,Sway Thai,,,,,,,,,,,,,,,,,,,,,
,,,,,,,,,,,,restaurant,,,american,,,,,,,,,,,,,,,,,,,,,,,30.2455664,,-97.7305892,,Draft Pick,,,,,,,,,,,,,,,,,,,,,
,,,,,,,,,,,,bar,,,,,,,,,,,,,,,,,,,,,,,,,,30.269053,,-97.741148,,CU29 Cocktail Bar,,,,,,,,,,,,,,,,,,,,,
,,,,,,,,,,,,restaurant,,,pizza,,,,,,,,,,,,,,,,,,,,,,,30.2492274,,-97.7495768,,Home Slice Pizza,,,,,,,,,,,,,,,,,,,,,
,,,,,,,,,,,,restaurant,,,pizza,,,,,,,,,,,,,,,,,,,,,,,30.2489829,,-97.7496114,,More Home Slice Pizza,,,,,,,,,,,,,,,,,,,,,
,,Austin,,,1104,78702,,East 6th Street,,,,restaurant,,,sandwich,,,,,,,,,,,,,,,,,,,,,,,30.2646952,,-97.7306252,,Gonzo Juice,,,,08:00-17:00,,,,yes,,,,,,,,,,,,,
,,,,,,,,,,,,restaurant,,,,,,,,,,,,,,,,,,,,,,,,,,30.2377151,,-97.7897162,,Red Lobster,,,,,,,,,,,,,,,,,,,,,
,,Austin,,,1703,78701,,Guadalupe Street,,,,bar,,,,,,,,,,,,,,,,,,,,,,,,,,30.2798438,,-97.7421243,,Dive,,,,4pm-2am,,,,,,,512-482-3483,,,,isolated,,,,http://www.diveaustin.com/,,
,,Austin,,,1601,78701,,Guadalupe Street,,,,restaurant,,,indian,,,,,,,,,,,,,,,,,,,,,,,30.2790333,,-97.7423871,,Clay Pit,,,,,,,,,,,,,,,,,,,,,
,,Austin,,,1401,,,Cedar Avenue,,,,restaurant,,,"Jamaican,_Cuban",,,,,,,,,,,,,,,,,,,,,,,30.2771154,,-97.7130932,,Caribbean Food Trailer,,,,,,,,,,,,,,,,,,,,,
,,,,,,,,,,,,restaurant,,,,,,,,,,,,,,,,,,,,,,,,,,30.2733072,,-97.7593133,,Stubb's,,,,,,,,,,,,,,,,,,,,,
,,,,,,,,,,,,restaurant,,,,,,,,,,,,,,,,,,,,,,,,,,30.2628814,,-97.7581779,,Flour and Wine,,,,,,,,,,,,,,,,,,,,,
,,,,,13376,,,Research Boulevard,,,,restaurant,,512-258-5445,chinese,,,BTC payment via Menufy.,,,,,,,,,,,,,,,,,,,,30.4444398,,-97.7890813,,A+A Sichuan China,,,,,,,,yes,,,,,,,,,,,http://aasichuanchina.menufy.com/,,
,,,,,14900,,,Avery Ranch Boulevard,,,,restaurant,,512-238-8889,pizza,,,BTC payment via Menufy.,,,,,,,,,,,,,,,,,,,,30.4992507,,-97.7776065,,Brooklyn Heights Pizzeria,,,,,,,,yes,,,,,,,,,,,http://brooklynheightspizzeria.menufy.com/,,
,,,,,13000,,,North Interstate Highway 35 Service Road,,,,restaurant,,(512)491-8859,thai,,,BTC payment via Menufy.,,,,,,,,,,,,,,,,,,,,30.4113764,,-97.6757528,,Chang Thai Thai Cuisine,,,,,,,,yes,,,,,,,,,,,http://changthaithaicuisine.com/,,
,,Austin,,,2002,,TX,Guadalupe Street,,,,restaurant,,(512)703-4100,asian,,,BTC payment via Menufy.,,,,,,,,,,,,,,,,,,,,30.2828492,,-97.7422705,,Emo's Kitchen,,,,,,,,yes,,,,,,,,,,,http://emoskitchen.com/,,
,,,,,"13000, Bldg 11 Suite 120",,,I 35 Frontage Road,,,,restaurant,,512-339-1688,chinese,,,BTC payment via Menufy.,,,,,,,,,,,,,,,,,,,,30.4107653,,-97.6753659,,Hoa My,,,,,,,,yes,,,,,,,,,,,http://hoamyrestaurant.com/,,
,,,,,5207,,,Brodie Lane,,,,restaurant,,512-892-2744,thai,,,BTC payment via Menufy.,,,,,,,,,,,,,,,,,,,,30.2306336,,-97.8172074,,IM Thai Cuisine,,,,,,,,yes,,,,,,,,,,,http://austin.imthaicuisine.com/,,
,,,,,3616,,,Far West Boulevard,,,,restaurant,,512-241-1732,indian,,,BTC payment via Menufy.,,,,,,,,,,,,,,,,,,,,30.3549924,,-97.7556362,,Indian Palace,,,,,,,,yes,,,,,,,,,,,http://indianfoodaustin.menufy.com/,,
,,,,,11630,,,FM 620 North,,,,restaurant,,512-258-9888,sushi,,,BTC payment via Menufy.,,,,,,,,,,,,,,,,,,,,30.4573699,,-97.8247654,,Nagoya Steak & Sushi,,,,,,,,yes,,,,,,,,,,,http://eatnagoya.menufy.com/,,
,,,,,9001,,,Brodie Lane,,,,restaurant,,(512)292-4228,sushi,,,BTC payment via Menufy.,,,,,,,,,,,,,,,,,,,,30.193437,,-97.8429024,,Nanami Sushi Bar & Grill,,,,,,,,yes,,,,,,,,,,,http://nanamiaustin.com/,,
,,,,,13450,,,Research Boulevard,,,,restaurant,,512-331-1858,chinese,,,BTC payment via Menufy.,,,,,,,,,,,,,,,,,,,,30.4471357,,-97.7908518,,Nanking Restaurant,,,,,,,,yes,,,,,,,,,,,http://nankingrestaurantaustin.com/,,
,,,,,3421,,,West William Cannon Drive,,,,restaurant,,(512)899-2390,chinese,,,BTC payment via Menufy.,,,,,,,,,,,,,,,,,,,,30.2126814,,-97.8302101,,Ocean China Restaurant,,,,,,,,yes,,,,,,,,,,,http://oceanchinaonline.com/,,
,,,,,6001,,,West Parmer Lane,,,,restaurant,,512-258-5700,pizza,,,BTC payment via Menufy.,,,,,,,,,,,,,,,,,,,,30.4419354,,-97.7444107,,Prima Pizza Pasta,,,,,,,,yes,,,,,,,,,,,http://prima-pizza-pasta.menufy.com/,,
,,,,,11657,,,Research Boulevard,,,,restaurant,,512-527-8888,chinese,,,BTC payment via Menufy.,,,,,,,,,,,,,,,,,,,,30.417508,,-97.7455341,,Super China,,,,,,,,yes,,,,,,,,,,,http://superchinarestaurant.com/,,
,,,,,16238,,,Ranch-to-Market Road 620,,,,restaurant,,512-716-1118,sushi,,,BTC payment via Menufy.,,,,,,,,,,,,,,,,,,,,30.4929898,,-97.7269717,,Sushi.com,,,,,,,,yes,,,,,,,,,,,http://sushidotcomaustin.com/,,
,,,,,9300,,,South I-35 Service SB,,,,restaurant,,(512)382-0057,thai,,,BTC payment via Menufy.,,,,,,,,,,,,,,,,,,,,30.1666541,,-97.7879909,,Thai Passion - South,,,,,,,,yes,,,,,,,,,,,http://thaipassionsouth.menufy.com/,,
,,,,,3720,,,Gattis School Road,,,,restaurant,,(512)733-2233,thai,,,BTC payment via Menufy.,,,,,,,,,,,,,,,,,,,,30.4952762,,-97.6540163,,Thai Spoon,,,,,,,,yes,,,,,,,,,,,http://thaispoonrestaurant.menufy.com/,,
,,Austin,,,2222,,TX,Rio Grande Street,,,,restaurant,,512-467-4150,pizza,,,BTC payment via Menufy.,,,,,,,,,,,,,,,,,,,,30.2867283,,-97.7449806,,Tower Pizza Bistro,,,,,,,,yes,,,,,,,,,,,http://towerpizzabistro.menufy.com/,,
,,,,,5510,,,I 35 Frontage Road,,,,restaurant,,(512)383-8681,sushi,,,BTC payment via Menufy.,,,,,,,,,,,,,,,,,,,,30.2004116,,-97.7637844,,Umi Sushi Bar & Grill,,,,,,,,yes,,,,,,,,,,,http://umiaustin.menufy.com/,,
,,,,,1202,,,FM 685,,,,restaurant,,512-990-0411,chinese,,,BTC payment via Menufy.,,,,,,,,,,,,,,,,,,,,30.4471751,,-97.6076416,,Great Wall Express,,,,,,,,yes,,,,,,,,,,,http://greatwallpflugerville.com/,,
,,,,,,,,,,,,restaurant,,,salad,,,,,,,,,,,,,,,,,,,,,,,30.2906805,,-97.742035,,Greengos,,,,,,,,,,,,,,,,,,,,,
,,,,,,,,,,,,restaurant,,,,,,,,,,,,,,,,,,,,,,,,,,30.4834991,,-97.681747,,Wingstop,,,,,,,,,,,,,,,,,,,,,
,,,,,,,,,,,,restaurant,,,mexican,,,,,,,,,,,,,,,,,,,,,,,30.2152705,,-97.7678877,,Villa Mexico,,,,,,,,,,,,,,,,,,,,,
,,,,,,,,,,,,restaurant,,,,,,,,,,,,,,,,,,,,,,,,,,30.2367199,,-97.7908699,,Pluckers Wing Bar,,,,,,,,,,,,,,,,,,,,,
,,,,,,,,,,,,restaurant,,,,,,,,,,,,,,,,,,,,,,,,,,30.2371532,,-97.7922625,,Olive Garden,,,,,,,,,,,,,,,,,,,,,
,,,,,,,,,,,,school,,,,,,,,,,,,,,,,,,,,,,,,,,30.2541778,,-97.8439959,,Regents School of Austin,,,,,,,,,,,,,,,,,,,,,
,,,,,,,,,,,,restaurant,,,,,,,,,,,,,,,,,,,,,,,,,,30.3291468,,-97.6578963,,Waffle House,,,,,,,,,,,,,,,,,,,,,
,,,,,,,,,,,,restaurant,,,Bar-B-Q,,,,,,,,,,,,,,,,,,,,,,,30.3291779,,-97.6589922,,Bill Miller,,,,,,,,,,,,,,,,,,,,,
,,,,,,,,,,,,restaurant,,,,,,,,,,,,,,,,,,,,,,,,,,30.29957,,-97.7213026,,Freebirds World Burrito,,,,,,,,,,,,,,,,,,,,,
,,,,,,,,,,,,restaurant,,,,,,,,,,,,,,,,,,,,,,,,,,30.3011027,,-97.7213632,,Jason's Deli,,,,,,,,,,,,,,,,,,,,,
,,,,,,,,,,,,restaurant,,,sandwich,,,,,,,,,,,,,,,,,,,,,,,30.2910977,,-97.7267131,,Jimmy John's,,,,,,,,,,,,,,,,,,,,,
,,,,,,,,,,,,restaurant,,,pizza,,,,,,,,,,,,,,,,,,,,,,,30.3587973,,-97.7390819,,Mr Gatti's Pizza,,,,,,,,,,,,,,,,,,,,,
,,,,,,,,,,,,restaurant,,,,,,,,,,,,,,,,,,,,,,,,,,30.3062603,,-97.7076229,,BoneHeads,,,,,,,,,,,,,,,,,,,,,
,,,,,,,,,,,,restaurant,,,greek,,,,,,,,,,,,,,,,,,,,,,,30.3059317,,-97.7082733,,Tinos,,,,,,,,,,,,,,,,,,,,,
,,,,,,,,,,,,restaurant,,,thai,,,,,,,,,,,,,,,,,,,,,,,30.3059803,,-97.7081097,,Pad Thai,,,,,,,,,,,,,,,,,,,,,
,,,,,11521,,,FM 620 North,,,,restaurant,,,pizza,,,,,,,,,,,,,,,,,,,,,,,30.4526411,,-97.8265282,,Rudino's Grinders,,,,,,,,,,,,,,,,,,,,,
,,,,,12233,,,FM 620 North,,,,restaurant,,,,,,,,,,,,,,,,,,,,,,,,,,30.462314,,-97.8140845,,R/C Fowler's,,,,,,,,,,,,,,,,,,,,,
,,,,,,,,,,,,restaurant,,,,,,,,,,,,,,,,,,,,,,,,,,30.4626411,,-97.815913,,Stuffed Cajun,,,,,,,,,,,,,,,,,,,,,
,,,,,,,,,,,,restaurant,,,japanese,,,,,,,,,,,,,,,,,,,,,,,30.3052153,,-97.7083208,,How do you roll?,,,,,,,,,,,,,,,,,,,,,
,,Austin,,,2100,78705,TX,Guadalupe Street,,,,restaurant,,,thai,,,,,,,,,,,,,,,,,,,,,,,30.2839299,,-97.7421513,,Thai How Are You,,,,,,,,,,,512-482-8919,,,,no,,,,http://www.thaihowareyou.com/,,
,,Austin,,,2100,78705,TX,Guadalupe Street,,,,restaurant,,,indian,,,,,,,,,,,,,,,,,,,,,,,30.2839994,,-97.7421191,,Teji's,,,,,,,,,,,,,,,no,,,,http://tejifoods.com/tejis2014/,,
,,Austin,,,1900,78702,,East Martin Luther King Jr Boulevard,,,,restaurant,,,sandwich,,,,,,,,,,,,,,,,,,,,,,,30.280221,,-97.7211343,,Austin Daily Press,,,,,,,,,,,,,,,,,,,http://austindailypress.com/,,
,,,,,,,,,,,,restaurant,,,mexican,,,,,,,,,,,,,,,,,,,,,,,30.2330122,,-97.865479,,Flores Mexican,,,,,,,,,,,,,,,,,,,,,
,,,,,,,,,,,,restaurant,,,,,,,,,,,,,,,,,,,,,,,,,,30.2436161,,-97.8826499,,Jack Allen's,,,,,,,,,,,,,,,,,,,,,
,,,,,,,,,,,,restaurant,,,,,,,,,,,,,,,,,,,,,,,,,,30.3170802,,-97.7195557,,Foreign & Domestic,,,,,,,,,,,,,,,,,,,,,
,,,,Suite 301,6001,78749,,West William Cannon,,,,restaurant,,,mexican,,,,,,,,,,,,,,,,,,,,,,,30.228369,,-97.8627558,,Hecho En Mexico,,,,,,,,,,,,,,,,,,,http://www.hechoenmexico-restaurant.com,,
,,,,,12636,78759,,"Research Blvd, Austin",,,,restaurant,,,italian,,,,,,,,,,,,,,,,,,,,,,,30.4304857,,-97.7641522,,Pizza hut,,,,,,,,,,,,,,,,,,,,,
,,Austin,,,1725,78757,,Ohlen Road,,,,restaurant,,,chicken,,,,,,,,,,,,,,,,,,,,,,,30.3626624,,-97.7185807,,Pollo Regio,,,,,,,,,,,,,,,,,,,,,
,,Austin,,,1900,78722,,Manor Road,,,,restaurant,,,burger,,,,,,,,,,,,,,,,,,,,,,,30.2840559,,-97.721778,,El Sapo,,Happy hour 4-7pm daily. Dogs allowed on outside patio.,,11:00-22:00,,,,,,,(512) 366-5154,,,,outside,,,,http://elsapoatx.com/,,
,,Austin,,,2611,78722,,Manor Road,,,,restaurant,0,,Tex-Mex,,,,,,,,,,,,,,,,,,,,,,,30.2847133,,-97.7149412,,Taco Mex,,,,,,,,,,,(512) 524-0860,,,,,,,,,,
,,Austin,,,3301,78722,,N Interstate 35 Frontage Rd,,,,restaurant,,,mexican,,,,,,,,,,,,,,,,,,,,,,,30.2909325,,-97.7216786,,Taqueria Los Altos,,,,Sun-Sat 7am-11am,,,,,,,(512) 236-1219,,,,,,,,http://taquerialosaltosaustin.eat24hour.com/,,
,,Austin,,,4140,78721,,East 12th Street,,,,restaurant,,,regional,,,,,,,,,,,,,,,,,,,,,,,30.2792485,,-97.6871767,,Country Boyz,,,,,,,,,,,(512) 928-5555,,,,,,,,,,
,,,,,,,,,,,,school,,,,,,,,,,,,,,,,,,,,,,,,,,30.2740521,,-97.8154971,,Westlake High School - Field 3,,,,,,,,,,,,,,,,,,,,,
,,Austin,,,900,78702,Texas,East 11th Street,,,,restaurant,,,barbecue,,,,,,,,,,,,,,,,,,,,,,,30.2701113,,-97.7312923,,Franklin Barbecue,,,,Tu-Su 11:00+,,,,,,,,,,,,,,,http://franklinbarbecue.com/,,
,,,,,,,,,,,,bar,,,,,,,,,,,,,,,,,,,,,,,,,,30.267129,,-97.7390069,,The Jackalope,,,,11:00-2:00,,,,,,,,,,,,,,,http://www.jackalopebar.com/,,
,,Austin,,,1400,78704,Texas,South Congress Avenue,,,,restaurant,,,burger,,,,,,,,,,,,,,,,,,,,,,,30.2496642,,-97.7499575,,Hopdoddy,,,,Su-Th 11:00-22:00; Fr-Sa 11:00-23:00,,,,,,,,,,,,,,,http://www.hopdoddy.com/,,
,,Austin,,,1917,,,Manor Road,,,,restaurant,,,,,,,,,,,,,,,,,,,,,,,,,,30.2837405,,-97.7212605,,Salty Sow,,,,,,,,,,,,,,,,,,,http://www.saltysow.com/,,
,,,,,801,,,South Lamar Boulevard,,,,restaurant,,,japanese,,,,,,,,,,,,,,,,,,,,,,,30.2575513,,-97.7597642,,Uchi,,,,Su-Th 17:00-22:00 Fr-Sa 17:00-23:00,,,,,,,512.916.4808,,,,,,,,http://www.uchiaustin.com/,,en:Uchi
,,,,,4200,,,North Lamar Boulevard,,,,restaurant,,,mexican,,,,,,,,,,,,,,,,,,,,,,,30.3104716,,-97.7401083,,Tacodeli,,,,,,,,,,,,,,,,,,,,,
,,,,,4200,,,North Lamar Boulevard,,,,restaurant,,,japanese,,,,,,,,,,,,,,,,,,,,,,,30.3107699,,-97.7398856,,Uchiko,,,,,,,,,,,,,,,,,,,,,
,,,,,2247,,,Guadalupe Street,,,,bar,,,,,,,,,,,,,,,,,,,,,,,,,,30.2868316,,-97.7411484,,Cactus Cafe,,,,,The University of Texas at Austin,,,,,,,,,,,,,,,,
,,,,,,,,,,,,bar,,,,,,,,,,,,,,,,,,,,,,,,,,30.2604906,,-97.7383075,,Bungalow,,,,,,,,,,,,,,,,,,,,,
,,,,,,,,,,,,bar,,,,,,,,,,,,,,,,,,,,,,,,,,30.2603206,,-97.7384009,,Container Bar,,,,,,,,,,,,,,,,,,,,,
,,,,,,,,,,,,bar,,,,,,,,,,,,,,,,,,,,,,,,,,30.2600133,,-97.7385023,,Clive Bar,,,,,,,,,,,,,,,,,,,,,
,,,,,,,,,,,,restaurant,,,,,,,,,,,,,,,,,,,,,,,,,,30.25962,,-97.7381246,,No Va Kitchen & Bar,,,,,,,,,,,,,,,,,,,,,
,,,,,,,,,,,,bar,,,,,,,,,,,,,,,,,,,,,,,,,,30.2595204,,-97.7382816,,Icenhauer's,,,,,,,,,,,,,,,,,,,,,
,,,,,,,,,,,,bar,,,,,,,,,,,,,,,,,,,,,,,,,,30.2597643,,-97.7386037,,THE BLACKHEART,,,,,,,,,,,,,,,,,,,,,
,,,,,,,,,,,,bar,,,,,,,,,,,,,,,,,,,,,,,,,,30.2587408,,-97.73855,,Lucille,,,,,,,,,,,,,,,,,,,,,
,,,,,,,,,,,,bar,,,,,,,,,,,,,,,,,,,,,,,,,,30.2581501,,-97.7388025,,Javelina,,,,,,,,,,,,,,,,,,,,,
,,,,,,,,,,,,bar,,,,,,,,,,,,,,,,,,,,,,,,,,30.2584292,,-97.7386658,,Half Step,,,,,,,,,,,,,,,,,,,,,
,,,,,,,,,,,,restaurant,,,japanese,,,,,,,,,,,,,,,,,,,,,,,30.2508288,,-97.7489794,,Lucky Robot,,,,,,,,,,,,,,,,,,,,,
,,,,,,,,,,,,bar,,,,,,,,,,,,,,,,,,,,,,,,,,30.2505001,,-97.7490664,,The Continental Club,,,,,,,,,,,,,,,,,,,,,
,,,,,,,,,,,,restaurant,,,italian,,,,,,,,,,,,,,,,,,,,,,,30.2503043,,-97.7491227,,Botticelli's,,,,,,,,,,,,,,,,,,,,,
,,Austin,,,3003,78704,TX,South Lamar Boulevard,,,,restaurant,150,,american,,,,,,,,,,,,,,,,,,,,,,,30.242444,,-97.7831164,,Sherlock's Baker Street Pub,,,,,,,,,,,+1 512 691-9140,,,,outside,,yes,,,,
,,,,,,,,,,,,restaurant,,,mexican,,,,,,,,,,,,,,,,,,,,,,,30.2584147,,-97.7876984,,Tacodeli,,,,,,,,,,,,,,,,,,,,,
,,,,,1920,,,South Congress Avenue,,,,restaurant,,,,,,,,,,,,,,,,,,,,,,,,,,30.2444789,,-97.7519802,,Magnolia Cafe,,,,,,,,,,,,,,,,,,,,,
,,,,,912,,,Red River Street,,,,bar,,,,,,,,,,,,,,,,,,,,,,,,,,30.2700576,,-97.7360877,,Mohawk,,,,,,,,,,,,,,,,,,,,,
,,,,,1809,,,West Anderson Lane,,,,restaurant,,,pizza,,,,,,,,,,,,,,,,,,,,,,,30.3532415,,-97.7256708,,East Side Pies,,,,,,,,,,,,,,,,,,,,,
,,Austin,,,5312,78751,Tx,Airport Boulevard,,,,restaurant,20,,pizza,,,,,,,,,,,,,,,,,,,,,,,30.3148694,,-97.7153301,,East Side Pies,,,,11:00-22:00,,,,,,,,,,,no,,,,,,
,,,,,2310,,,South Lamar Boulevard,,,,restaurant,,,mexican,,,,,,,,,,,,,,,,,,,,,,,30.247541,,-97.774965,,East Side King,,,,,,,,,,,,,,,,,,,,,
,,,,,1618,,,East 6th Street,,,,restaurant,,,,,,,,,,,,,,,,,,,,,,,,,,30.2628843,,-97.7250289,,East Side King,,,,,,,,,,,,,,,,,,,,,
,,,,,,,,,,,,restaurant,,,,,,,,,,,,,,,,,,,,,,,,,,30.2900348,,-97.7418173,,,,,,,,,,,,,,,,,,,,,,,
,,,,,,,,,,,,restaurant,,,,,,,,,,,,,,,,,,,,,,,,,,30.2897847,,-97.7416269,,Fuzzy's Taco Shop,,,,,,,,,,,,,,,,,,,,,
,,,,,8557,,,Research Boulevard,,,,restaurant,,,chinese,,,,,,,,,,,,,,,,,,,,,,,30.3612087,,-97.7152193,,Ramen Tatsu-Ya,,,,,,,,,,,,,,,,,,,,,
,,,,,902,,,East Cesar Chavez Street,,,,restaurant,,,barbecue,,,,,,,,,,,,,,,,,,,,,,,30.2610555,,-97.7351957,,la Barbecue,,,,,,,,,,,,,,,,,,,,,
,,,,,2113,,,Manor Road,,,,restaurant,,,,,,,,,,,,,,,,,,,,,,,,,,30.2839939,,-97.7194995,,Eastside Cafe,,,,,,,,,,,,,,,,,,,,,
,,,,,517,,,East 6th Street,,,,bar,,,,,,,,,,,,,,,,,,,,,,,,,,30.2665007,,-97.7376596,,Casino El Camino,,,,,,,,,,,(512) 469-9330,,,,,,,,http://www.casinoelcamino.net/,,
,,,,,2024,,,South Lamar Boulevard,,,,restaurant,,,,,,,,,,,,,,,,,,,,,,,,,,30.2491852,,-97.7684454,,Barley Swine,,,,,,,,,,,,,,,,,,,,,
,,,,,73,,,Rainey Street,,,,restaurant,,,indian,,,,,,,,,,,,,,,,,,,,,,,30.2582972,,-97.7386792,,G'Raj Mahal,,,,,,,,,,,,,,,,,,,http://www.grajmahalaustin.com/,,
,,,,,,,,,,,,bar,,,,,,,,,,,,,,,,,,,,,,,,,,30.2643637,,-97.7307275,,Violet Crown,,,,,,,,,,,,,,,,,,,,,
,,,,,,,,,,,,restaurant,,,pizza,,,,,,,,,,,,,,,,,,,,,,,30.2642316,,-97.7307892,,Via 313,,,,,,,,,,,,,,,,,,,,,
,,,,,,,,,,,,restaurant,,,pizza,,,,,,,,,,,,,,,,,,,,,,,30.2578889,,-97.7386911,,Via 313,,,,,,,,,,,,,,,,,,,,,
,,,,,7301,,,Burnet Road,,,,restaurant,,,,,,,,,,,,,,,,,,,,,,,,,,30.3487955,,-97.7350656,,Tacodeli,,,,,,,,,,,,,,,,,,,,,
,,,,,1600,,,East 6th Street,,,,restaurant,,,,,,,,,,,,,,,,,,,,,,,,,,30.2631486,,-97.7263132,,Qui,,,,,,,,,,,,,,,,,,,,,
,,,,,510,,,Rio Grande Street,,,,bar,,,,,,,,,,,,,,,,,,,,,,,,,,30.2696325,,-97.7498966,,Kung Fu Saloon,,,,,,,,,,,,,,,,,,,,,
,,,,,,,,,,,,bar,,,,,,,,,,,,,,,,,,,,,,,,,,30.262574,,-97.7270591,,The White Horse,,,,,,,,,,,,,,,,,,,,,
,,,,,,,,,,,,bar,,,,,,,,,,,,,,,,,,,,,,,,,,30.2617215,,-97.7247308,,Yellow Jacket Social Club,,,,,,,,,,,,,,,,,,,,,
,,,,,,,,,,,,restaurant,,,,,,,,,,,,,,,,,,,,,,,,,,30.2648186,,-97.7411682,,Vince Young Steakhouse,,,,,,,,,,,,,,,,,,,,,
,,,,,,,,,,,,restaurant,,,mexican,,,,,,,,,,,,,,,,,,,,,,,30.2657807,,-97.7439043,,Manuel's,,,,,,,,,,,,,,,,,,,,,
,,,,,,,,,,,,bar,,,,,,,,,,,,,,,,,,,,,,,,,,30.3167177,,-97.7142604,,Barfly's,,,,,,,,,,,,,,,,,,,,,
,,Austin,,,1611,78703,TX,West 5th Street,,,,restaurant,,,sushi,,,,,,,,,,,,,,,,,,,,,,,30.2744128,,-97.7644753,,Sushi Zushi,,,,,,,,,,,,,,,,,,,,,
,,,,,,,,,,,,restaurant,,,mexican,,,,,,,,,,,,,,,,,,,,,,,30.2727661,,-97.7605957,,Tacos and Tequila,,,,,,,,,,,,,,,,,,,,,
,,Austin,,,1623,78702,Tx,East 7th Street,,,,restaurant,,,"Tacos,_coffee",,,,,,,,,,,,,,,,,,,,,,,30.2630554,,-97.7244128,,El Chilito,,,,Monday-Friday 7am-10pm  Saturday. 8am - 10pm. Sunday. 8am - 9pm,,,,,,,,,,,,,,,www.elchilito.com,,
,,,,,,,,,,,,school,,,,,,,,,,,,,,,,,,,,,,,,,,30.3127961,,-97.7193923,,The Griffin School,,,,,,,,,,,,,,,,,,,,,
,,Austin,,,1707,78702,Tx,East 6th Street,,,,restaurant,,,,,,,,,,,,,,,,,,,,,,,,,,30.2616837,,-97.7243672,,Tamale House East,,,,8:00am-3:00pm,,,,,,,,,,,,,,,,,
,,,,,,,,,,,,restaurant,50,,mexican,,,,,,,,,,,,,,,,,,,,,,,30.3046116,,-97.7264005,,Julio's Cafe,,,,,,,,,,,,,,,,,,,,,
,,Austin,,,4119,78751,TX,Guadalupe Street,,,,restaurant,,,,,,,,,,,,,,,,,,,,,,,,,,30.3069687,,-97.7353169,,Vino Vino,,,,,,,,,,,,,,,,,,,,,
,,,,,206,,,Colorado Street,,,,restaurant,,,sushi,,,,,,,,,,,,,,,,,,,,,,,30.2652966,,-97.7455299,,Bar Chi Sushi,,,,,,,,,,,,,,,,,,,,,
,,,,,258,,,West 2nd Street,,,,restaurant,,,italian,,,,,,,,,,,,,,,,,,,,,,,30.2651262,,-97.7463264,,Taverna,,,,,,,,,,,,,,,,,,,,,
,,,,,,,,West 2nd Street,,,,restaurant,,,,,,,,,,,,,,,,,,,,,,,,,,30.2650023,,-97.7459789,,Cru,,,,,,,,,,,,,,,,,,,,,
,,,,,452,,,,,,,restaurant,,,italian,,,,,,,,,,,,,,,,,,,,,,,30.2656885,,-97.7484551,,No. 28,,,,,,,,,,,,,,,,,,,,,
,,,,,,,,,,,,restaurant,,,barbecue,,,,,,,,,,,,,,,,,,,,,,,30.2651799,,-97.7479269,,Lamberts,,,,,,,,,,,,,,,,,,,,,
,,,,,400,,,,,,,restaurant,,,mexican,,,,,,,,,,,,,,,,,,,,,,,30.265572,,-97.7477644,,La Condesa,,,,,,,,,,,,,,,,,,,,,
,,,,,Suite 30,,,,,,,bar,,,,,,,,,,,,,,,,,,,,,,,,,,30.2670293,,-97.7495947,,Trifecta On 3rd,,,,,,,,,,,,,,,,,,,,,
,,,,,,,,,,,,restaurant,,,,,,,,,,,,,,,,,,,,,,,,,,30.2670888,,-97.7498303,,Coast,,,,,,,,,,,,,,,,,,,,,
,,Austin,,,2312,78704,TX,South 1st Street,,,,restaurant,,,sandwich,,,,,,,,,,,,,,,,,,,,,,,30.242618,,-97.7593004,,G's Dynamite Deli,,,,,,,,,,,,,,,no,,,,,,
,,,,,,,,,,,,restaurant,,,,,,,,,,,,,,,,,,,,,,,,,,30.2498056,,-97.754687,,Elizabeth Street Cafe,,,,,,,,,,,,,,,,,,,,,
,,,,,,,,,,,,restaurant,,,,,,,,,,,,,,,,,,,,,,,,,,30.2582402,,-97.7487942,,Threadgill's,,,,,,,,,,,,,,,,,,,,,
,,,,,,,,,,,,restaurant,,,,,,,,,,,,,,,,,,,,,,,,,,30.2491713,,-97.768542,,Henri's Cheese,,,,,,,,,,,,,,,,,,,,,
,,,,,,,,,,,,restaurant,,,mexican,,,,,,,,,,,,,,,,,,,,,,,30.2489743,,-97.7689416,,El Meson,,,,,,,,,,,,,,,,,,,,,
,,,,,,,,,,,,restaurant,,,,,,,,,,,,,,,,,,,,,,,,,,30.2546763,,-97.7620403,,Odd Duck,,,,,,,,,,,,,,,,,,,,,
,,,,,,,,,,,,restaurant,,,mexican,,,,,,,,,,,,,,,,,,,,,,,30.2547389,,-97.7626492,,Maudie's Too,,,,,,,,,,,,,,,,,,,,,
,,,,,,,,,,,,restaurant,,,spanish,,,,,,,,,,,,,,,,,,,,,,,30.2523316,,-97.7644892,,Barlata,,,,,,,,,,,,,,,,,,,,,
,,"Austin, Tx",,,,78748,,9600 IH 35 C-200,,,,restaurant,,,,,,,,,,,,,,,,,,,,,,,,,,30.1612482,,-97.7916799,,Zorba Greek Diner,,,,,,,,,,,5122915050,,,,,,,,,yes,
,,,,,,,,,,,,bar,,,,,,,,,,,,,,,,,,,,,,,,,,30.2676562,,-97.7408963,,Bourbon Girl,,,,,,,,,,,+1 512-433-6983,,,,,,,,http://bourbongirlaustin.com/site/,,
,,,,,,,,,,,,bar,,,,,,,,,,,,,,,,,,,,,,,,,,30.267686,,-97.7410028,,Friends Bar,,,,,,,,,,,,,,,,,,,http://www.friendsbar.com/,,
,,,,,,,,,,,,bar,,,,,,,,,,,,,,,,,,,,,,,,,,30.2675688,,-97.7405829,,Recess Arcade Bar,,,,,,,,,,,,,,,,,,,http://recessarcadebar.com/,,
,,,,,,,,,,,,bar,,,,,,,,,,,,,,,,,,,,,,,,,,30.2669612,,-97.7384055,,Buckshot 6th St,,,,,,,,,,,,,,,,,,,https://www.facebook.com/pages/Buckshot-6th-St/359712537432946,,
,,,,,,,,,,,,bar,,,,,,,,,,,,,,,,,,,,,,,,,,30.2670224,,-97.7386248,,Cheers Shot Bar,,,,,,,,,,,51224990093,,,,,,,,https://www.facebook.com/cheersshotbar,,
,,,,,,,,,,,,restaurant,,,mexican,,,,,,,,,,,,,,,,,,,,,,,30.2671673,,-97.7391442,,Chupacabra Cantina,,,,11:00-2:00,,,,,,,+1 512-703-4628,,,,,,,,http://www.chupacabracantina.com/,,
,,,,,,,,,,,,bar,,,,,,,,,,,,,,,,,,,,,,,,,,30.2677385,,-97.7384416,,MugShots,,,,"Su 18:00-2:00;Mo 19:30-2:00;Tu,We 20:00-2:00;Th,Fr 17:00-2:00;Sa 19:00-2:00",,,,,,,(512) 236-0008,,,,,,,,http://www.mugshotsaustin.com/,,
,,,,,,,,,,,,restaurant,,,pizza,,,,,,,,,,,,,,,,,,,,,,,30.2671481,,-97.7390753,,Peckerheads on Sixth,,,,,,,,,,,,,,,,,,,https://twitter.com/peckerheads,,
,,,,,,,,,,,,restaurant,,,,,,,,,,,,,,,,,,,,,,,,,,30.2647151,,-97.7410729,,Rio Grande Mexican,,,,,,,,,,,,,,,,,,,,,
,,,,,,,,,,,,bar,,,,,,,,,,,,,,,,,,,,,,,,,,30.2674088,,-97.7400096,,The Dizzy Rooster,,,,,,,,,,,+1 512-236-1667,,,,,,,,http://www.dizzyrooster.com,,
,,,,,,,,,,,,restaurant,,,sushi,,,,,,,,,,,,,,,,,,,,,,,30.266411,,-97.7364345,,Geisha Sushi & Grill,,,,,,,,,,,,,,,,,,,http://www.geisha6th.com/,,
,,,,,,,,,,,,restaurant,,,,,,,yes,,,,,,,,,,,,,,,,,,,30.2670555,,-97.7359806,,Koriente Restaurant,,,,Su-Fr 11:00-21:30;Sa 13:00-21:30,,,yes,,,,+1 512-275-0852,,,,,,,,http://www.koriente.com/,,
,,Round Rock,,,150,,TX,Sundance Parkway,,,,restaurant,,,Ice_cream,,,,,,,,,,,,,,,,,,,,,,,30.4835706,,-97.6817012,,Maggi Moo's,,,,,,,,,,,,,,,,,,,,,
,,"Austin, TX",,,,78702,,,,,,restaurant,,,,,,,,,,,,,,,,,,,,,,,,,,30.2618724,,-97.7182535,,Los Comales Restaurant,,,,,,,,,,,,,,,isolated,,,,,yes,
,,,,,,,,,,,,restaurant,,,noodle,,,,,,,,,,,,,,,,,,,,,,,30.2539965,,-97.7631485,,Ramen Tatsu-ya,,,,,,,,,,,,,,,,,no,,,,
,,,,,,,,,,,,restaurant,,,asian,,,,,,,,,,,,,,,,,,,,,,,30.2520294,,-97.7638486,,Chilantro,,,,,,,,,,,,,,,,,,,,,
,,Austin,,,2027,78723,TX,Anchor Lane,,,,restaurant,,,american,,,,,,,,,,,,,,,,,,,,,,,30.2878053,,-97.7033737,,Contigo,,,,,,,,,,,,,,,,,,,,,
,,Austin,,,8863,78729,Texas,Anderson Mill Road,,,,restaurant,,,persian,,,,,,,,,,,,,,,,,,,,,,,30.453921,,-97.772406,,Shandeez Grill,,,,,,,,,,,,,,,,,,,,,
,,Austin,,,9112,78729,Texas,Anderson Mill Road,,,,bar,,,,,,,,,,,,,,,,,,,,,,,,,,30.4526852,,-97.7812614,,Stompin Grounds,,,,11AM - 2AM,,,,,,,,,,,,,,,,,
,,,,,,,,,,,,restaurant,,,,,,,,,,,,,,,,,,,,,,,,,,30.2451066,,-97.7688916,,ABGB,,,,,,,,,,,,,,,,,,,,,
,,,,,,,,,,,,bar,,,,,,,,,,,,,,,,,,,,,,,,,,30.2452596,,-97.7688434,,ABGB,,,,,,,,,,,,,,,,,,,,,
,,,,,,,,,,,,restaurant,,,,,,,,,,,,,,,,,,,,,,,,,,30.2332215,,-97.7425765,,Denny's,,,,,,,,,,,,,,,,,,,,,
,,Austin,,,7619,78741,TX,East Ben White Boulevard,,,,restaurant,,,american,,,,,,,,,,,,,,,,,,,,,,,30.2172052,,-97.6917916,,Denny's,,,,,,,,,,,,,,,,,,,,,
,,,,,,,,,,,,restaurant,,,,,,,,,,,,,,,,,,,,,,,,,,30.2705148,,-97.7507367,,The Grove,,,,,,,,,,,,,,,,,,,,,
,,,,,,,,,,,,restaurant,,,,,,,,,,,,,,,,,,,,,,,,,,30.2703425,,-97.7503681,,Benji's,,,,,,,,,,,,,,,,,,,,,
,,,,,,,,,,,,restaurant,,,mexican,chicken,,,,,,,,,,,,,,,,,,,,,,30.359708,,-97.7359092,,Mighty Bird,,,,,,,,,,,,,,,,,,,,,
,,,,,,,,,,,,restaurant,,,sandwich,,,,,,,,,,,,,,,,,,,,,,,30.3558668,,-97.7336445,,Which Wich,,,,,,,,,,,,,,,,,,,,,
,,,,,,,,,,,,restaurant,,,yogurt,,,,,,,,,,,,,,,,,,,,,,,30.3566054,,-97.7353057,,Yogurtland,,,,,,,,,,,,,,,,,,,,,
,,,,,,,,,,,,restaurant,,,sandwich,,,,,,,,,,,,,,,,,,,,,,,30.3562929,,-97.7322891,,Schlotskys,,,,,,,,,,,,,,,,,,,,,
,,Austin,,,404,78701,TX,Colorado Street,,,,bar,,,,,,gay bar and nightclub,,,,,,,,,,yes,,,,,,,,,,30.2669654,,-97.7448469,,Highland Lounge,,,,,,,,,,,+1 512 649 1212,,,,,,,gay,,,
,,,,,,,,,,,,bar,,,,,,,,,,,,,,,,,,,,,,,,,,30.2802455,,-97.7208778,,The Wheel,,,,,,,,,,,,,,,,,,,,,
,,Austin,,,2002,78722,tx,Manor Road,,,,restaurant,,,regional,,,,,,,,,,,,,,,,,,,,,,,30.2843995,,-97.7203077,,Hoover's Cooking,,,,,,,,,,,,,,,,,,,,,
,,Austin,,,10212,78748,TX,Manchaca Road,,,,bar,,,,,,,,,,,,,,,,,,,,,,,,,,30.1692713,,-97.8266605,,Moontower Saloon,,,,,,,,,,,512-712-5661,,,,,,,,http://www.moontowersaloon.com,yes,
,,,,,,,,,,,,restaurant,,,ice_cream,,,,,,,,,,,,,,,,,,,,,,,30.4969913,,-97.7239557,,DQ Restaurant,,,,,,,,,,,,,,,,,,,,,
,,,,,,,,,,,,restaurant,,,,,,,,,,,,,,,,,,,,,,,,,,30.26467,,-97.744339,,Restaurant Comgress,,,,,,,,,,,,,,,,,,,,,
,,,,,,,,,,,,restaurant,,,,,,,,,,,,,,,,,,,,,,,,,,30.240538,,-97.726533,,Taquearía Arandas,,,,,,,,,,,,,,,,,,,,,
,,Austin,,,2222,78705,TX,Rio Grande St,,,,restaurant,,,"american,wings",,,,,,,,,,,,,,,,,,,,,,,30.2863059,,-97.7450193,,Plucker's Wing Factory,,,,,,,,,,,,,,,,,,,,,
,,,,,4301,78751,,Guadalupe Street,,,,bar,,,pizza,,,,,,,,,,,,,,,,,,,,,,,30.308726,,-97.734055,,,,,,,,,,,,,,,,,,,,,,,
,,,,,11228,78758,,Domain Drive,,,,restaurant,,,,,,,,,,,,,,,,,,,,,,,,,,30.399031,,-97.725794,,Shake Shack,,,,,,,,,,,,,,,,,,,,,
,,"Austin, TX",,,North Hills Town Center  10710 Research Blvd #328,,,,,,,restaurant,,,asian,,yes,,,,,,,,,,,,,,,,,,,,,30.398259,,-97.7493286,,Mama  Fu's,,,,Sun - Thurs  11:00 - 9:00    Fri - Sat  11:00 - 10:00,,,,,,,,,,,,,yes,,,,
,,,,,,,,,,,,restaurant,,,asian,,,,,,,,,,,,,,,,,,,,,,,30.36113,,-97.7154947,,Pho Van Vietnamese,,,,,,,,,,,,,,,,,,,,,
,,Austin,,,6619,78752,TX,Airport Boulevard,,,,restaurant,,,Greek-centric_Mediterranean_cuisine,,yes,,,,,,,,,,,,,,,,,,,,,30.3312136,,-97.7151818,,Arpeggio Grill,,,,,,,,,,,,,,,,,,,http://www.arpeggiogrill.com/,,
,,Austin,,,2348,78757,TX,West Anderson Lane,,,,restaurant,,,sandwich,,no,,,,,,,,,,,,,,,,,,,,,30.357991,,-97.7328711,,VertsKebap,,,,11:00-22:00,,,,,,,,,,,no,,yes,,http://www.vertskebap.com/,,
,,,,,300,,,Mays Crossing Drive,,,,restaurant,,,american,,,,,,,,,,,,,,,,,,,,,,,30.4990916,,-97.6792156,,Pluckers,,,,,,,,,,,,,,,,,,,,,
,,Austin,,,360,78701,TX,Nueces Street,10,,,restaurant,,,french,,,,,,,,,,,,,,,,,,,,,,,30.2671429,,-97.7500427,,Prelog's,,,,,,,,,,,,,,,no,,,,http://www.prelogs.com/,,
,,,,,,,,Rio Grande Street,,,,restaurant,,,mexican,,,,,,,,,,,,,,,,,,,,,,,30.2695125,,-97.7495273,,Wahoo's Fish Tacos,,,,,,,,,,,,,,,,,,,,,
,,,,,,,,Rio Grande Street,,,,bar,,,,,,,,,,,,,,,,,,,,,,,,wlan,,30.269614,,-97.7494164,,Dirty Bill's,,,,Mo-Su 16:00-02:00,,,,,,,,,,,,,,,,,
,,,,,,,,,,,,restaurant,,,burger,,,,,,,,,,,,,,,,,,,,,,,30.2960046,,-97.8269907,,Hat Creek Burger Company,,,,,,,,,,,,,,,,,yes,,,,
,,,,,4204,,,Manchaca Road,,,,bar,,,coffee_shop,,,,,,,,,,,,,,,,,,,,,,,30.2315416,,-97.7877719,,Radio,,,,,,,,,,,,,,,,,,,http://radiocoffeeandbeer.com,,
,,,,,,,,,,,,restaurant,,,,,,,,,,,,,,,,,,,,,,,,,,30.2552616,,-97.7190399,,Juan in a Million,,,,,,,,,,,,,,,,,,,,,
,,,,,11501,78758,,Rock Rose,,,,bar,,,,,,,,,,,,,,,,,,,,,,,,,,30.4008451,amusement_arcade,-97.7227584,,Kung Fu Saloon,,,,,,,,,,,512-719-3808,,,,,,,,http://kungfusaloonrockrose.com/,,
,,,,,11500,78758,,Rock Rose,,,,bar,,,,,,,,,,,,,,info@stgen.co,,,,,,,,,,,,30.4013625,,-97.7228104,,St. Genevieve,,,,,,,,,,,512.659.5537,,,,,,,,http://stgen.co/,,
,,,,,11501,78758,,Rock Rose,,,,restaurant,,,indian,,,,,,,,,,,,,,,,,,,,,,,30.4007076,,-97.7228127,,tärka Indian Kitchen,,,,,,,,,,,(512) 719-3311,,,,,,,,https://tarkaindiankitchen.com/,,
,,,,,,,,,,,,restaurant,,,burger,,,,,,,,,,,,,,,,,,,,,,,30.2646732,,-97.7437945,,Burger Bar,,,,,,,,,,,,,,,,,,,,,
,,,,,,,,,,,,bar,,,,,,,,,,,,,,,,,,,,,,,,,,30.2644196,,-97.7438985,,,,,,,,,,,,,,,,,,,,,,,
,,,,,,,,,,,,school,,,,,,,,,,,,,,,,,,,,,,,,,,30.2870948,,-97.730615,,Butler School of Music,,,,,,,,,,,,,music_school,,,,,,,,
,,,,,,,,,,,,restaurant,,,,,,,,,,,,,,,,,,,,,,,,,,30.3120522,,-97.7149517,,Casey's Snowballs,,,,,,,,,,,,,,,,,,,,,
,,,,,2011,78756,,West Koenig Lane,,,,school,,,,,,,,,,,,,,,,,,,,,,,,,,30.3339294,,-97.7390154,,Capitol School of Austin,Capitol School of Austin,,,,,,,,,,(512) 467-7006,,,,,,,,,,
,,,,,,,,,,,,bar,,,,,,,,,,,,,,,,,,,,,,,,,,30.3098698,,-97.7079636,,Carousel Lounge,,,,,,,,,,,,,,,,,,,,,
,,,,,,,,,,,,bar,,,,,,,,,,,,,,,,,,,,,,,,,,30.2662263,,-97.7355652,,Sidebar,,,,,,,,,,,,,,,,,,,,,
,,,,,,,,,,,,restaurant,,,burger,,,,,,,,,,,,,,,,,,,,,,,30.2429035,,-97.7839568,,Wholly Cow Burger and Zen Market,,,,,,,,,,,,,,general,,,,,,,
,,,,,,,,,,,,restaurant,,,asian,,,,,,,,,,,,,,,,,,,,,,,30.241537,,-97.7841603,,Michi Ramen,,,,,,,,,,,,,,,,,,,,,
,,,,,,,,,,,,restaurant,,,,,,,,,,,,,,,,,,,,,,,,,,30.2673126,,-97.7521766,,True Food Kitchen,,,,,,,,,,,,,,,,,,,,,
,,,,,,78758,,,,,,bar,,,,,,,,,,,,,,,,,,,,,,,,,,30.3826286,,-97.7201589,,Adelbert's Brewery,Adelbert's Brewery,,,,,,,,,,5126621462,,,,,,,,,,
,,,,,,,,,,,,restaurant,,,,,,,,,,,,,,,,,,,,,,,,,,30.3503116,,-97.691914,,Fujian Grand China Buffet,,,,,,,,,,,,,,,,,,,,,
,,,,,,,,,,,,restaurant,,,,,,,,,,,,,,,,,,,,,,,,,,30.4585771,,-97.7514666,,Parmer Café,,,,,,,,,,,,,,,,,,,,,
,,Austin,,,1901,78745,TX,West William Cannon Drive,,,,restaurant,,,"chinese,_vietnamese",,yes,,,,,,,,,,,,,,,,,,,,,30.2013637,,-97.805593,,Hao Hao Restaurant,,,,,,,,,,,,,,,,,yes,,,,
,,,,,,,,,,,,restaurant,,,,,,,,,,,,,,,,,,,,,,,,,,30.4005487,,-97.7231014,,Lavaca Street Bar,,,,,,,,,,,,,,,,,,,,,
,,,,,,,,,,,,restaurant,,,,,,,,,,,,,,,,,,,,,,,,,,30.4001026,,-97.725537,,Punch Bowl Social,,,,,,,,,,,,,,,,,,,,,
,,,,,,,,,,,,restaurant,,,,,,,,,,,,,,,,,,,,,,,,,,30.4028142,,-97.7216185,,Paul Martin's Austin Grill,,,,,,,,,,,,,,,,,,,,,
,,,,,,,,,,,,restaurant,,,,,,,,,,,,,,,,,,,,,,,,,,30.4000202,,-97.7233768,,Hat Creek Burger Company,,,,,,,,,,,,,,,,,,,,,
,,,,,,,,,,,,restaurant,,,,,,,,,,,,,,,,,,,,,,,,,,30.4009665,,-97.72273,,Salvation Pizza,,,,,,,,,,,,,,,,,,,,,
,,,,,,,,,,,,restaurant,,,,,,,,,,,,,,,,,,,,,,,,,,30.4036846,,-97.7215867,,Flower Child,,,,,,,,,,,,,,,,,,,,,
,,,,,,,,,,,,bar,,,,,,,,,,,,,,,,,,,,,,,,,,30.4008427,,-97.7230038,,The Dogwood,,,,,,,,,,,,,,,,,,,,,
,,,,,,,,,,,,restaurant,,,,,,,,,,,,,,,,,,,,,,,,,,30.4005842,,-97.7228892,,Apanas,,,,,,,,,,,,,,,,,,,,,
,,,,,,,,,,,,restaurant,,,,,,,,,,,,,,,,,,,,,,,,,,30.4024214,,-97.7210862,,Second,,,,,,,,,,,,,,,,,,,,,
,,,,,,,,,,,,restaurant,,,,,,,,,,,,,,,,,,,,,,,,,,30.4003251,,-97.7232286,,Jinya Ramen Bar,,,,,,,,,,,,,,,,,,,,,
,,,,,,,,,,,,bar,,,,,,,,,,,,,,,,,,,,,,,,,,30.4012164,,-97.7228646,,77 Degrees,,,,,,,,,,,,,,,,,,,,,
,,,,,,,,,,,,restaurant,,,,,,,,,,,,,,,,,,,,,,,,,,30.4013872,,-97.7225798,,Thai Kun,,,,,,,,,,,,,,,,,,,,,
,,,,,,,,,,,,restaurant,,,,,,,,,,,,,,,,,,,,,,,,,,30.4043332,,-97.7212735,,Yard House,,,,,,,,,,,,,,,,,,,,,
,,,,,,,,,,,,restaurant,,,,,,,,,,,,,,,,,,,,,,,,,,30.4030919,,-97.7215241,,Toulouse,,,,,,,,,,,,,,,,,,,,,
,,,,,,,,,,,,restaurant,,,,,,,,,,,,,,,,,,,,,,,,,,30.4006951,,-97.7230537,,Mia,,,,,,,,,,,,,,,,,,,,,
,,,,,,,,,,,,restaurant,,,,,,,,,,,,,,,,,,,,,,,,,,30.4002709,,-97.7229893,,Mad Greens,,,,,,,,,,,,,,,,,,,,,
,,,,,,,,,,,,restaurant,,,,,,,,,,,,,,,,,,,,,,,,,,30.403753,,-97.7251257,,McCormick & Schmick's,,,,,,,,,,,,,,,,,,,,,
,,,,,,,,,,,,restaurant,,,,,,,,,,,,,,,,,,,,,,,,,,30.4004956,,-97.7229161,,Sway,,,,,,,,,,,,,,,,,,,,,
,,,,,,,,,,,,restaurant,,,,,,,,,,,,,,,,,,,,,,,,,,30.4010428,,-97.7226996,,General Tso'Boy,,,,,,,,,,,,,,,,,,,,,
,,,,,,,,,,,,restaurant,,,,,,,,,,,,,,,,,,,,,,,,,,30.4034103,,-97.7216938,,Culinary Drop Out,,,,,,,,,,,,,,,,,,,,,
,,,,,,,,,,,,restaurant,,,,,,,,,,,,,,,,,,,,,,,,,,30.4004735,,-97.7272519,,Copper,,,,,,,,,,,,,,,,,,,,,
